{"type":"FeatureCollection","name":"RT-7 coffee district boundaries (geoBoundaries gbOpen, simplified)","features":[{"type":"Feature","properties":{"region":"colombia","district":"Huila","iso3":"COL","adm_level":"ADM1","shapeName":"Huila","shapeID":"13589884B32024052187233","shapeGroup":"COL","source":"geoBoundaries gbOpen 9469f09"},"geometry":{"type":"Polygon","coordinates":[[[-74.4159831,3.7407273],[-74.4238868,3.7414922],[-74.434178,3.738222],[-74.442177,3.7304615],[-74.4414718,3.7284407],[-74.4515739,3.724345],[-74.449871,3.726901],[-74.4533212,3.7276964],[-74.4557546,3.7301607],[-74.4572597,3.7346297],[-74.4566436,3.7448616],[-74.46096,3.7578863],[-74.4598667,3.7741033],[-74.4515952,3.7878584],[-74.4474494,3.802855],[-74.4510715,3.8104288],[-74.4584052,3.8171489],[-74.4797174,3.825029],[-74.5126711,3.8243898],[-74.5233262,3.8270429],[-74.5278665,3.8297272],[-74.5330779,3.8411695],[-74.5394303,3.8448472],[-74.5373111,3.8332564],[-74.5352279,3.8308936],[-74.5369543,3.8184587],[-74.5378267,3.8160279],[-74.5426997,3.8138918],[-74.5446551,3.8111855],[-74.545979,3.792464],[-74.5543897,3.7832592],[-74.5533875,3.7792337],[-74.5559445,3.7740473],[-74.5567668,3.7680751],[-74.5660357,3.7586095],[-74.574153,3.752941],[-74.5771615,3.7463969],[-74.5845574,3.7426947],[-74.5860839,3.7348293],[-74.5926929,3.7254078],[-74.6045475,3.7212428],[-74.6086413,3.716492],[-74.6145205,3.7125806],[-74.6245585,3.6989995],[-74.6298775,3.6992036],[-74.6333094,3.6929816],[-74.6475642,3.6845956],[-74.6527158,3.6827516],[-74.6556629,3.6838704],[-74.6611063,3.678245],[-74.6622035,3.6738293],[-74.6671995,3.6735625],[-74.6740908,3.6709617],[-74.6781831,3.6625224],[-74.6870654,3.6533345],[-74.692167,3.6442611],[-74.6987904,3.6386056],[-74.7007661,3.6167397],[-74.7089968,3.6109327],[-74.7123135,3.6106175],[-74.7170415,3.6141973],[-74.7207514,3.6125099],[-74.7282347,3.6004419],[-74.7385907,3.589757],[-74.738682,3.5828749],[-74.7346915,3.5755316],[-74.7331966,3.5673438],[-74.7257858,3.5623954],[-74.7276818,3.5542123],[-74.7323577,3.5479031],[-74.734281,3.5412533],[-74.739164,3.5333823],[-74.7450702,3.5292502],[-74.7495764,3.5285066],[-74.7560758,3.5320602],[-74.7610142,3.5322916],[-74.76774,3.5302286],[-74.7725603,3.5260709],[-74.7823504,3.4995332],[-74.7806662,3.4805009],[-74.7777958,3.4718997],[-74.7748896,3.467286],[-74.7657611,3.4596585],[-74.7625024,3.4543574],[-74.7623461,3.45039],[-74.7650546,3.4426041],[-74.7698523,3.4379545],[-74.8006571,3.4179019],[-74.8141878,3.4072931],[-74.8167855,3.4019477],[-74.814865,3.3921038],[-74.8223655,3.3905079],[-74.8253745,3.3872536],[-74.8277663,3.3779293],[-74.8345541,3.3668932],[-74.8393134,3.3608033],[-74.8464655,3.3553087],[-74.8493324,3.3415279],[-74.8564464,3.3379024],[-74.8598043,3.3343213],[-74.8628743,3.3335968],[-74.8651455,3.3295509],[-74.873122,3.3259899],[-74.8866621,3.3097097],[-74.9078072,3.2900171],[-74.9153702,3.2893036],[-74.9291526,3.2832376],[-74.9363987,3.2843557],[-74.9441428,3.2811283],[-74.9551419,3.2799618],[-74.9604596,3.2815736],[-74.9656397,3.2809949],[-74.9724253,3.2838813],[-74.984356,3.2843097],[-74.9895431,3.2828621],[-74.9940662,3.2783867],[-75.0008485,3.2768056],[-75.0036756,3.277642],[-75.0056992,3.2809968],[-75.0145599,3.2877536],[-75.0233556,3.2882765],[-75.0370495,3.286647],[-75.0530759,3.2876293],[-75.0726633,3.2960553],[-75.074146,3.2996942],[-75.0724318,3.3027729],[-75.0647721,3.3107688],[-75.0589641,3.3144714],[-75.0594955,3.3241226],[-75.0568952,3.333672],[-75.0614079,3.3577968],[-75.057974,3.3688158],[-75.0585082,3.3810898],[-75.0535017,3.3853962],[-75.0410767,3.3831006],[-75.0357533,3.3837353],[-75.0338764,3.3859403],[-75.0340899,3.390766],[-75.037748,3.3951686],[-75.035457,3.400941],[-75.0372352,3.4045062],[-75.042876,3.4079626],[-75.0430945,3.417719],[-75.0396573,3.4255908],[-75.0402394,3.4276885],[-75.0436429,3.4291641],[-75.0609617,3.4319466],[-75.0669315,3.4307404],[-75.0949953,3.4309109],[-75.1163254,3.4327708],[-75.1210609,3.4325587],[-75.1234491,3.4304522],[-75.127983,3.4296587],[-75.1439048,3.4354732],[-75.1476339,3.4354923],[-75.1510934,3.43274],[-75.1527528,3.4292877],[-75.1523476,3.424616],[-75.1497644,3.4230684],[-75.149242,3.420924],[-75.1536349,3.4178656],[-75.1573781,3.4115176],[-75.1636684,3.4106481],[-75.1717109,3.4121214],[-75.1761627,3.4091983],[-75.1769338,3.4050403],[-75.1737703,3.3982425],[-75.1738651,3.3911148],[-75.1725061,3.3872787],[-75.175532,3.3851984],[-75.1804519,3.3847185],[-75.1839919,3.3818056],[-75.1981772,3.3844178],[-75.1998729,3.3863494],[-75.2005585,3.3925522],[-75.1956184,3.3956742],[-75.2013292,3.4025298],[-75.1996367,3.4085258],[-75.203971,3.4106036],[-75.2113506,3.4089592],[-75.2116622,3.4122231],[-75.2145232,3.413734],[-75.2202707,3.4119037],[-75.2283785,3.4145763],[-75.2416007,3.4046322],[-75.2423954,3.4004529],[-75.245824,3.3952903],[-75.2454099,3.3834156],[-75.2511471,3.3758],[-75.2505684,3.369025],[-75.2529503,3.3665639],[-75.2558762,3.3676088],[-75.256399,3.3731733],[-75.2604747,3.3781329],[-75.2773828,3.3838198],[-75.2822931,3.3884234],[-75.2902175,3.3914492],[-75.3026882,3.3989066],[-75.3070529,3.4041064],[-75.3109443,3.4122556],[-75.3199621,3.419556],[-75.3236618,3.4120956],[-75.3235627,3.4050578],[-75.3334483,3.3994749],[-75.3391857,3.4013954],[-75.3436778,3.4062331],[-75.3534705,3.4037721],[-75.3594068,3.4089821],[-75.3648851,3.4088993],[-75.3682959,3.4070816],[-75.3704025,3.4034431],[-75.373556,3.389353],[-75.3776139,3.3810761],[-75.3781646,3.3735806],[-75.3942081,3.3776302],[-75.4096053,3.3696492],[-75.4154011,3.3725283],[-75.4170043,3.3644008],[-75.4246155,3.3585153],[-75.4275057,3.3535469],[-75.4419185,3.3470846],[-75.4433042,3.3546269],[-75.4460422,3.3567175],[-75.46237,3.3547334],[-75.4718758,3.3607227],[-75.4784386,3.3610524],[-75.4865491,3.3484151],[-75.4877137,3.3390863],[-75.4856661,3.3304952],[-75.4878962,3.3270708],[-75.4981711,3.3224099],[-75.5131031,3.3276954],[-75.5174333,3.3262023],[-75.5261945,3.3198174],[-75.5266866,3.3173501],[-75.5216513,3.3109036],[-75.5213406,3.3013808],[-75.5279252,3.2944327],[-75.5305739,3.2869633],[-75.534483,3.2814649],[-75.5390297,3.2786592],[-75.544274,3.271897],[-75.5481563,3.2603791],[-75.5478664,3.2570922],[-75.553961,3.2562154],[-75.559481,3.2483012],[-75.5685067,3.2412212],[-75.5770646,3.2239479],[-75.5767485,3.2207329],[-75.5733613,3.2193522],[-75.5728985,3.2178228],[-75.5728664,3.2105129],[-75.5756018,3.206747],[-75.5756879,3.2039807],[-75.5726284,3.2010307],[-75.5779112,3.1954755],[-75.5767039,3.1890598],[-75.5780826,3.1852037],[-75.5848405,3.1772054],[-75.5825144,3.1692776],[-75.5884818,3.1560893],[-75.5842287,3.1487387],[-75.5770869,3.1442083],[-75.5769782,3.1423502],[-75.5822619,3.1358665],[-75.5845471,3.121831],[-75.5907337,3.1158228],[-75.598229,3.1156444],[-75.6015008,3.1140382],[-75.605871,3.1025671],[-75.6221426,3.0754315],[-75.6170268,3.0615116],[-75.6081038,3.0581804],[-75.600549,3.0517737],[-75.5996601,3.0487123],[-75.6017164,3.0466277],[-75.6020603,3.0390772],[-75.6095503,3.0345163],[-75.6106515,3.0284725],[-75.6168759,3.0210702],[-75.6219845,3.0088326],[-75.6271076,3.008816],[-75.6307957,2.999655],[-75.6341983,2.9950151],[-75.6366373,2.9941228],[-75.6472854,2.9962643],[-75.6579216,2.9888285],[-75.664822,2.9876983],[-75.6844526,2.9893044],[-75.6941155,2.9946025],[-75.6931889,2.9899993],[-75.6970404,2.9850053],[-75.6991972,2.9751734],[-75.7027125,2.9699737],[-75.7106704,2.9642219],[-75.7221289,2.9616739],[-75.7245489,2.9570517],[-75.7287725,2.9567756],[-75.7327853,2.952473],[-75.7359128,2.9544089],[-75.7449401,2.9530734],[-75.7480241,2.9476788],[-75.7512707,2.9469011],[-75.7538874,2.9440551],[-75.7600472,2.9427798],[-75.7613666,2.9383056],[-75.7651234,2.9338212],[-75.765306,2.9272539],[-75.7670621,2.9242917],[-75.7636816,2.9178081],[-75.7657728,2.9147912],[-75.7721568,2.9128424],[-75.7775406,2.9132512],[-75.7811423,2.9103171],[-75.7830687,2.905127],[-75.7896278,2.9014271],[-75.7908295,2.8976152],[-75.7989876,2.8880739],[-75.8033999,2.8854033],[-75.8173144,2.8842433],[-75.8250149,2.8720931],[-75.8343116,2.8730741],[-75.844892,2.8705001],[-75.8569876,2.8713061],[-75.864115,2.8775998],[-75.8695519,2.8774952],[-75.8761636,2.886606],[-75.8812448,2.8887467],[-75.8845287,2.8976959],[-75.9009122,2.8954636],[-75.9028729,2.8985557],[-75.9075504,2.9011874],[-75.9087226,2.9096679],[-75.9258233,2.9139591],[-75.9268309,2.9218282],[-75.9332027,2.9221676],[-75.9378596,2.920026],[-75.9448056,2.9218315],[-75.9486393,2.9170011],[-75.9538748,2.9173454],[-75.9571712,2.9235959],[-75.9553692,2.9299431],[-75.9575275,2.9323391],[-75.9575381,2.9352143],[-75.9630563,2.936398],[-75.9650525,2.940149],[-75.9649599,2.9441305],[-75.9722259,2.9456465],[-75.9815719,2.9555259],[-75.9803192,2.9602075],[-75.9829838,2.9658353],[-75.9829031,2.9724705],[-75.9887557,2.9823686],[-76.0123237,2.9785313],[-76.0136557,2.9766074],[-76.0223261,2.9731959],[-76.0257651,2.9686947],[-76.0253625,2.9561885],[-76.0291606,2.9504388],[-76.0292414,2.9407773],[-76.0197611,2.925437],[-76.0096352,2.9182875],[-76.0079205,2.9153128],[-76.0016282,2.9140559],[-75.9972727,2.9052257],[-75.9784621,2.8877127],[-75.9630411,2.874013],[-75.9574952,2.8726542],[-75.9492332,2.8658515],[-75.9455722,2.8599243],[-75.9434314,2.8598207],[-75.9369236,2.8517545],[-75.9134466,2.8338754],[-75.8571767,2.7859749],[-75.8464756,2.783827],[-75.8310005,2.7841403],[-75.8181672,2.7776653],[-75.8105243,2.7677839],[-75.8033862,2.7673986],[-75.794132,2.7619514],[-75.7779043,2.7588173],[-75.7715448,2.7545293],[-75.7602604,2.7501807],[-75.7533958,2.7429193],[-75.7526545,2.7315246],[-75.7475052,2.7189885],[-75.7508587,2.7165306],[-75.7535827,2.7115014],[-75.7545269,2.7005002],[-75.7574505,2.692953],[-75.7573676,2.6833751],[-75.7610014,2.6800809],[-75.7717222,2.6756092],[-75.7747284,2.6713199],[-75.7744446,2.668712],[-75.7802121,2.6602096],[-75.7868028,2.6569916],[-75.7891754,2.6541306],[-75.7913082,2.631618],[-75.800284,2.6218],[-75.8105663,2.5999207],[-75.8146764,2.5958074],[-75.8229787,2.5922094],[-75.8273945,2.5754895],[-75.8297874,2.5724544],[-75.8368592,2.5683522],[-75.8380978,2.5651922],[-75.8386077,2.5579557],[-75.8341398,2.5504473],[-75.8365346,2.5388128],[-75.8269967,2.5305918],[-75.8241784,2.5240076],[-75.8203918,2.5197634],[-75.8193098,2.5119833],[-75.8212312,2.5065106],[-75.8222802,2.4950459],[-75.8140641,2.4838635],[-75.8203992,2.4836185],[-75.8307711,2.4738356],[-75.8394586,2.4681565],[-75.8400828,2.4605097],[-75.8453107,2.4586027],[-75.8484795,2.4549671],[-75.8525791,2.4547141],[-75.8547535,2.4458596],[-75.8589817,2.4419456],[-75.8584507,2.4393961],[-75.8557129,2.4373924],[-75.8556712,2.4347839],[-75.8610043,2.4287745],[-75.8638412,2.427363],[-75.8720321,2.4269842],[-75.8755076,2.4301924],[-75.8857679,2.4282517],[-75.8994236,2.4403923],[-75.9096771,2.4463225],[-75.9121774,2.4531555],[-75.9176815,2.4584626],[-75.9165067,2.4720808],[-75.9213311,2.4749966],[-75.9241312,2.4794181],[-75.9317186,2.4798982],[-75.9386567,2.4879927],[-75.9475677,2.4861998],[-75.9515201,2.487126],[-75.9581938,2.4912715],[-75.9623907,2.4986755],[-75.9779422,2.5030645],[-75.9857254,2.4931486],[-75.9890762,2.481191],[-75.9945455,2.4773721],[-75.9998429,2.4665174],[-76.0198733,2.4465683],[-76.0233955,2.4261714],[-76.0266301,2.4167061],[-76.0306694,2.4099465],[-76.0336427,2.4092191],[-76.0355997,2.4069739],[-76.0379119,2.4014919],[-76.0408141,2.4006503],[-76.0487235,2.4063009],[-76.0553222,2.4062105],[-76.0771069,2.4151594],[-76.0844287,2.4160634],[-76.0908466,2.415521],[-76.0945527,2.4101878],[-76.0973549,2.4102782],[-76.0994339,2.4078376],[-76.1033987,2.4066558],[-76.1070769,2.3977508],[-76.1153969,2.3919992],[-76.1213439,2.3819007],[-76.1260899,2.3802462],[-76.1466198,2.2934112],[-76.1210555,2.224496],[-76.1336145,2.2223126],[-76.1438709,2.2043768],[-76.153349,2.1989388],[-76.1861271,2.1971415],[-76.194747,2.1954634],[-76.2090912,2.1990091],[-76.2136097,2.204834],[-76.2197206,2.2080397],[-76.2217018,2.210836],[-76.2250769,2.2177875],[-76.2241405,2.222208],[-76.2276082,2.221009],[-76.2425616,2.2323513],[-76.2514683,2.2480129],[-76.269007,2.2629075],[-76.2747046,2.2693467],[-76.2764203,2.274747],[-76.2785929,2.2758318],[-76.2888303,2.2742631],[-76.2950438,2.2779181],[-76.2990643,2.2824868],[-76.302902,2.2836747],[-76.3082931,2.2812989],[-76.3232786,2.2811162],[-76.3332385,2.2777353],[-76.3437866,2.2721147],[-76.3605653,2.2706907],[-76.3639298,2.2777884],[-76.367637,2.2771608],[-76.3737673,2.2790894],[-76.3813005,2.2711687],[-76.3846566,2.2641321],[-76.3889138,2.2536859],[-76.3897297,2.2416616],[-76.39628,2.2275225],[-76.4031619,2.2047329],[-76.4070096,2.1975446],[-76.4114143,2.1948678],[-76.4329625,2.1895813],[-76.4346232,2.1875055],[-76.4357396,2.1816136],[-76.4337057,2.178251],[-76.4342694,2.1749323],[-76.4326582,2.1699957],[-76.4371972,2.160022],[-76.4364499,2.1540437],[-76.4332947,2.149394],[-76.4270229,2.133301],[-76.427369,2.1274234],[-76.429949,2.1217197],[-76.4320117,2.1199918],[-76.4507621,2.1150008],[-76.4621555,2.1031549],[-76.4666477,2.1010606],[-76.4716641,2.1026184],[-76.4844901,2.1231239],[-76.4888183,2.1267699],[-76.4929684,2.1271112],[-76.4967678,2.1243222],[-76.5014357,2.1241409],[-76.5078462,2.1326538],[-76.513209,2.1345586],[-76.528418,2.1308816],[-76.5517707,2.1384971],[-76.5559815,2.1373769],[-76.5723153,2.1202008],[-76.58492,2.1102663],[-76.5901546,2.0985207],[-76.5890354,2.0890403],[-76.5763781,2.0655798],[-76.5772278,2.0561862],[-76.5796405,2.0513123],[-76.5863787,2.0486928],[-76.5865421,2.042605],[-76.5864507,2.0369842],[-76.5754584,2.0299253],[-76.5726804,2.0221027],[-76.5756047,2.012532],[-76.579567,2.0034815],[-76.5862678,2.0006274],[-76.5931857,1.9998432],[-76.6022117,1.9950227],[-76.6120102,1.9928527],[-76.6196041,1.9787059],[-76.624259,1.9738477],[-76.6231213,1.9650842],[-76.6200265,1.9561001],[-76.6123233,1.9456698],[-76.6192201,1.9309633],[-76.6188283,1.9259363],[-76.616055,1.9235425],[-76.6061406,1.9236348],[-76.5868987,1.9078067],[-76.5837965,1.8902411],[-76.5878503,1.8802348],[-76.586012,1.8720856],[-76.57902,1.8646758],[-76.5753873,1.8642075],[-76.5698189,1.8587469],[-76.5584126,1.8417056],[-76.5484753,1.8365172],[-76.5359605,1.8342911],[-76.5112979,1.833913],[-76.4805743,1.8242468],[-76.4743603,1.8204183],[-76.4714201,1.8202848],[-76.4641364,1.8124036],[-76.4540164,1.8062909],[-76.4521751,1.8063925],[-76.4329082,1.7920332],[-76.4259185,1.7809192],[-76.4222419,1.7686953],[-76.4205678,1.755498],[-76.424827,1.744251],[-76.4240981,1.723139],[-76.4193137,1.7216558],[-76.4101109,1.7246156],[-76.3799201,1.7494201],[-76.3740309,1.7494179],[-76.3696163,1.7434902],[-76.3688847,1.7312674],[-76.3810417,1.7016417],[-76.3854679,1.674976],[-76.3854697,1.6697907],[-76.3836312,1.6646047],[-76.3784794,1.6620102],[-76.3365207,1.663106],[-76.3262141,1.666065],[-76.3044918,1.6845752],[-76.2989703,1.6864249],[-76.290873,1.686792],[-76.2811256,1.6831833],[-76.2783496,1.6703993],[-76.2727372,1.6641919],[-76.2685288,1.6616871],[-76.2665268,1.6582346],[-76.2531665,1.6572436],[-76.2257363,1.6675054],[-76.217078,1.6651777],[-76.213593,1.6626853],[-76.2124919,1.6556479],[-76.2115128,1.6448054],[-76.2142266,1.6219413],[-76.2099406,1.614374],[-76.21004,1.612487],[-76.2121429,1.6112041],[-76.2080993,1.6000914],[-76.1981866,1.5830403],[-76.198539,1.5800877],[-76.191917,1.5741591],[-76.1870565,1.573089],[-76.1843439,1.5737552],[-76.1717327,1.5855573],[-76.1682587,1.587223],[-76.1572891,1.5847033],[-76.1464876,1.5779405],[-76.1388648,1.5750086],[-76.1339077,1.5707959],[-76.1236359,1.5565472],[-76.120304,1.5554725],[-76.1101573,1.55703],[-76.0996055,1.5658629],[-76.0839559,1.574043],[-76.0743247,1.5768519],[-76.0701396,1.573812],[-76.067646,1.5768487],[-76.0562997,1.5760404],[-76.0532032,1.5727776],[-76.0477676,1.5718371],[-76.0308328,1.5821447],[-76.0110973,1.6018289],[-76.0016156,1.6157349],[-75.9913514,1.6402688],[-75.981247,1.6560498],[-75.9725458,1.6618281],[-75.9557673,1.6685395],[-75.9459775,1.6765051],[-75.9333876,1.6918151],[-75.9072799,1.7147752],[-75.9010645,1.7188351],[-75.8940739,1.7207064],[-75.8866187,1.7203891],[-75.8684501,1.7141258],[-75.8623919,1.715216],[-75.8507382,1.7227106],[-75.8463848,1.7295848],[-75.8286682,1.7452024],[-75.8199115,1.7492911],[-75.7967423,1.753812],[-75.787656,1.7570527],[-75.7665244,1.7673204],[-75.7391769,1.7851501],[-75.7329578,1.7938977],[-75.7292054,1.8162726],[-75.7130472,1.833892],[-75.710554,1.8445175],[-75.7029437,1.8615626],[-75.693172,1.8692172],[-75.6894065,1.8751328],[-75.6595651,1.8994887],[-75.6533456,1.9076102],[-75.6439991,1.9401089],[-75.6228394,1.9813485],[-75.6116426,1.9963413],[-75.591123,2.014451],[-75.5824115,2.0288204],[-75.5768035,2.0463181],[-75.5576808,2.0536385],[-75.5545921,2.0579974],[-75.5528952,2.062355],[-75.5530586,2.0718448],[-75.5514179,2.0812774],[-75.5412383,2.0982699],[-75.5316776,2.1185865],[-75.5296271,2.1209978],[-75.5159425,2.121699],[-75.4868101,2.1335122],[-75.4759248,2.1351599],[-75.4605333,2.1406812],[-75.4502732,2.1455094],[-75.4427524,2.1527446],[-75.4342105,2.1661765],[-75.4225974,2.188905],[-75.4243168,2.1985414],[-75.4349376,2.213677],[-75.4370013,2.2253782],[-75.4177674,2.2382991],[-75.4080421,2.2479973],[-75.4091077,2.2491853],[-75.4093154,2.2584482],[-75.4018028,2.2753216],[-75.3932598,2.2880655],[-75.3895697,2.2967486],[-75.3884896,2.310444],[-75.3850717,2.314922],[-75.3535935,2.3194257],[-75.3447024,2.3263182],[-75.3320687,2.3576539],[-75.3276187,2.3562811],[-75.3187212,2.3562891],[-75.3070904,2.3614628],[-75.3012863,2.3769583],[-75.2900074,2.3934913],[-75.2828381,2.413463],[-75.2759992,2.4200095],[-75.2650524,2.4255269],[-75.2530818,2.4344874],[-75.2462438,2.4424108],[-75.2351248,2.4696081],[-75.2257396,2.4782293],[-75.2223233,2.4854612],[-75.2226768,2.4985419],[-75.2285061,2.5109293],[-75.2285094,2.5147159],[-75.201128,2.5147399],[-75.1836705,2.5126894],[-75.1764863,2.5168265],[-75.1744355,2.5202706],[-75.1753449,2.5240918],[-75.1790714,2.5271965],[-75.1796301,2.5319774],[-75.1778713,2.5357586],[-75.1689505,2.5521478],[-75.1569148,2.5618004],[-75.1398364,2.5844231],[-75.1343383,2.5990211],[-75.1353202,2.6045515],[-75.1389219,2.609954],[-75.1430923,2.6153566],[-75.1508644,2.6214226],[-75.1490635,2.6281521],[-75.15494,2.6421797],[-75.1530443,2.6527952],[-75.147547,2.6613255],[-75.1407228,2.6681498],[-75.1336142,2.6901391],[-75.1342776,2.6943095],[-75.138375,2.6951759],[-75.1438506,2.6991433],[-75.1486844,2.6998068],[-75.1523809,2.7029346],[-75.1526652,2.7102327],[-75.147547,2.7217013],[-75.1398697,2.7258717],[-75.1270742,2.7292838],[-75.0950343,2.7274053],[-75.0871845,2.7288474],[-75.0807636,2.7320825],[-75.0643588,2.7457329],[-75.0515224,2.7593802],[-75.0384086,2.7809812],[-75.0158366,2.8109499],[-75.0021608,2.835059],[-74.9901894,2.850216],[-74.9782153,2.8622746],[-74.9525522,2.883639],[-74.9416402,2.8954944],[-74.9339283,2.9066816],[-74.925861,2.9147094],[-74.9180009,2.9256657],[-74.9069388,2.9374118],[-74.9026028,2.9401365],[-74.8916561,2.9636736],[-74.8783154,2.9742369],[-74.8680505,2.9856053],[-74.8529907,2.9962885],[-74.8410146,3.0097236],[-74.8198084,3.0472642],[-74.8102244,3.0545006],[-74.7920784,3.0613984],[-74.7876331,3.0717296],[-74.7893555,3.0868766],[-74.7835346,3.0886019],[-74.7749725,3.0882633],[-74.7647013,3.0930899],[-74.7585404,3.0989467],[-74.7544387,3.1116876],[-74.749648,3.1180599],[-74.7404075,3.1287384],[-74.7250027,3.1407979],[-74.7215871,3.1559484],[-74.7150877,3.1693793],[-74.7150934,3.1786749],[-74.7133823,3.1810859],[-74.6938592,3.1810978],[-74.6828212,3.1860524],[-74.670237,3.2007359],[-74.6654545,3.2231171],[-74.6606662,3.2355141],[-74.6500582,3.2541116],[-74.6346549,3.2740888],[-74.6236984,3.2833905],[-74.6230163,3.2888995],[-74.6302141,3.2964698],[-74.6285095,3.311275],[-74.6155002,3.3260865],[-74.6155037,3.3326279],[-74.6203042,3.3408881],[-74.6350419,3.3536184],[-74.6374433,3.3594699],[-74.6374468,3.365667],[-74.6333419,3.3763421],[-74.6134913,3.4111262],[-74.6128086,3.4156023],[-74.615212,3.4250688],[-74.6111081,3.4381539],[-74.6135123,3.4488254],[-74.6179703,3.4560529],[-74.6320213,3.4629304],[-74.6344233,3.4691261],[-74.6258613,3.474984],[-74.6169593,3.485662],[-74.6029251,3.5097699],[-74.5929954,3.5218255],[-74.5847753,3.5276829],[-74.5710683,3.524936],[-74.5618174,3.5256294],[-74.5539412,3.534585],[-74.5351075,3.5583504],[-74.5286075,3.5796995],[-74.5179947,3.6000178],[-74.5121805,3.6234322],[-74.5025935,3.6406513],[-74.4930016,3.6478859],[-74.4823845,3.6616623],[-74.4676511,3.6675218],[-74.4628565,3.674754],[-74.4604609,3.6826737],[-74.4546376,3.6888735],[-74.437506,3.6981765],[-74.429284,3.7057542],[-74.4190082,3.7203907],[-74.4128443,3.7338204],[-74.4128459,3.7379519],[-74.4159831,3.7407273]]]}},{"type":"Feature","properties":{"region":"colombia","district":"Cauca","iso3":"COL","adm_level":"ADM1","shapeName":"Cauca","shapeID":"13589884B79790550435280","shapeGroup":"COL","source":"geoBoundaries gbOpen 9469f09"},"geometry":{"type":"Polygon","coordinates":[[[-76.0565208,3.2238778],[-76.0589943,3.2219123],[-76.0594351,3.2175257],[-76.0622035,3.2134338],[-76.0680252,3.2112461],[-76.0834632,3.2177598],[-76.1085133,3.2257977],[-76.1192662,3.2223558],[-76.1279865,3.2243821],[-76.1331023,3.2221977],[-76.1376925,3.2243986],[-76.1453053,3.2237952],[-76.1506338,3.2266931],[-76.153202,3.233802],[-76.156762,3.2350025],[-76.1653602,3.2337755],[-76.1696888,3.2308721],[-76.1810444,3.2320865],[-76.1857037,3.2288654],[-76.1912113,3.2280605],[-76.1942064,3.2303984],[-76.2023651,3.2422145],[-76.2065104,3.2573398],[-76.217193,3.2679697],[-76.2296137,3.2758945],[-76.2610973,3.2788111],[-76.2710362,3.2774839],[-76.2751457,3.2784388],[-76.282317,3.2829806],[-76.2932294,3.2862228],[-76.3040584,3.2858477],[-76.3109689,3.2824549],[-76.3229156,3.2806407],[-76.328034,3.2822588],[-76.3422774,3.2817779],[-76.3569209,3.2888654],[-76.3658249,3.2873814],[-76.3733914,3.2880593],[-76.4063302,3.298275],[-76.4076494,3.3012882],[-76.4143651,3.3047836],[-76.4165837,3.3103279],[-76.4199416,3.3118345],[-76.433433,3.3127384],[-76.447704,3.3170774],[-76.4537141,3.3237209],[-76.457497,3.3258844],[-76.4565901,3.3272705],[-76.4575229,3.3287344],[-76.4607293,3.3289846],[-76.4588983,3.3255427],[-76.4618547,3.322224],[-76.4612606,3.3174084],[-76.4635522,3.316547],[-76.4665794,3.3207271],[-76.4678384,3.3205435],[-76.4679798,3.3123386],[-76.4691539,3.3105733],[-76.4724499,3.3131577],[-76.4734825,3.3200069],[-76.4781082,3.3206141],[-76.4782638,3.3173519],[-76.4759722,3.3142733],[-76.4735972,3.3055151],[-76.4773213,3.3006363],[-76.4766429,3.2935598],[-76.4794117,3.2924126],[-76.4830389,3.2940988],[-76.484678,3.3027226],[-76.4885675,3.3054787],[-76.4899677,3.3043175],[-76.4904594,3.2971257],[-76.4942527,3.2925785],[-76.4941973,3.2909061],[-76.4914561,3.2888329],[-76.4734034,3.2902288],[-76.4716036,3.2886394],[-76.4730573,3.2851426],[-76.475037,3.284645],[-76.4823707,3.2876484],[-76.4858392,3.2868909],[-76.4873432,3.2837933],[-76.4868554,3.2804116],[-76.4845385,3.2768811],[-76.4816932,3.2804522],[-76.4723444,3.280114],[-76.4715179,3.278085],[-76.4742548,3.2754743],[-76.4735638,3.2711728],[-76.4660712,3.2704152],[-76.4624619,3.2685913],[-76.4645437,3.2624222],[-76.4594651,3.2581064],[-76.4631514,3.2533537],[-76.462316,3.2484421],[-76.4603005,3.2465887],[-76.4617856,3.2449471],[-76.4704047,3.2513282],[-76.4724467,3.2505339],[-76.4722743,3.2473036],[-76.4664266,3.24594],[-76.4635227,3.2441793],[-76.4626873,3.2418889],[-76.4680576,3.2390823],[-76.4710942,3.2447882],[-76.4764513,3.245715],[-76.4767297,3.2433187],[-76.4720091,3.2404327],[-76.4706699,3.2379835],[-76.4764486,3.235177],[-76.4773699,3.2293983],[-76.4728409,3.2286079],[-76.467637,3.2313677],[-76.4716989,3.2263405],[-76.4739569,3.2146405],[-76.4760592,3.2164674],[-76.4754753,3.222596],[-76.4772921,3.2241897],[-76.4805364,3.2230624],[-76.4795242,3.2188256],[-76.4843523,3.212455],[-76.4863101,3.2121322],[-76.4878368,3.2170279],[-76.4901359,3.2177452],[-76.4924529,3.2108051],[-76.4920937,3.2061784],[-76.4969432,3.2048334],[-76.4996374,3.2002245],[-76.4977874,3.1974269],[-76.4943209,3.1994534],[-76.4912495,3.1992382],[-76.4919141,3.1936609],[-76.4899024,3.18959],[-76.4902077,3.1868103],[-76.4935845,3.1820041],[-76.4929019,3.1798341],[-76.4879135,3.1759357],[-76.487017,3.1690906],[-76.4890737,3.1681253],[-76.4909019,3.1747948],[-76.494523,3.1763042],[-76.4988649,3.1714425],[-76.4935035,3.1692135],[-76.4934507,3.1663175],[-76.5020465,3.1677216],[-76.5030837,3.1659664],[-76.5007633,3.1589283],[-76.5056501,3.1602973],[-76.5085505,3.1590687],[-76.508779,3.1566992],[-76.5062829,3.152908],[-76.5009194,3.1521766],[-76.5004561,3.143763],[-76.5042098,3.1438778],[-76.5053972,3.1492512],[-76.5083274,3.1504942],[-76.5146091,3.1480083],[-76.5211207,3.1494425],[-76.5226528,3.1481039],[-76.5214845,3.1469948],[-76.517501,3.1476449],[-76.5127706,3.1459239],[-76.5145708,3.1442602],[-76.5184777,3.1453311],[-76.521293,3.1445279],[-76.5203354,3.1409329],[-76.51662,3.1373951],[-76.5169839,3.1341251],[-76.5187842,3.1331977],[-76.5224652,3.1364008],[-76.5299343,3.1375672],[-76.5328262,3.1363243],[-76.5326921,3.1306065],[-76.5304323,3.1319834],[-76.5302024,3.1348901],[-76.5279426,3.1348518],[-76.5222354,3.1310081],[-76.5239807,3.1267221],[-76.5225299,3.1228933],[-76.5171755,3.1250636],[-76.5130139,3.1231844],[-76.5133983,3.1207626],[-76.5157375,3.1184732],[-76.519634,3.1207362],[-76.522563,3.1172689],[-76.5269632,3.1149331],[-76.5286729,3.1167925],[-76.5281427,3.1249644],[-76.5300314,3.1261951],[-76.531085,3.1216692],[-76.5346833,3.1213251],[-76.5366846,3.1194128],[-76.5341134,3.1134906],[-76.5343188,3.1104998],[-76.5364394,3.1090308],[-76.5395208,3.111843],[-76.5415685,3.1112343],[-76.5436824,3.1078927],[-76.5440866,3.1036777],[-76.5462072,3.1029299],[-76.5474199,3.1042997],[-76.5461542,3.1084022],[-76.5474994,3.1099704],[-76.5516411,3.1050871],[-76.5554792,3.1093818],[-76.5600292,3.1050763],[-76.5638421,3.1075966],[-76.566546,3.111285],[-76.5644479,3.1146193],[-76.5646695,3.1173192],[-76.5705205,3.1186322],[-76.5694192,3.1251556],[-76.572261,3.1289321],[-76.574058,3.1284731],[-76.5782789,3.1265327],[-76.5791565,3.1237995],[-76.5739117,3.1166847],[-76.5739535,3.1145148],[-76.5769624,3.1147651],[-76.5784805,3.1190912],[-76.5798915,3.1195117],[-76.5851663,3.116229],[-76.5899905,3.1170257],[-76.5920886,3.1144955],[-76.5877816,3.1064695],[-76.5913055,3.1020066],[-76.5959449,3.1062261],[-76.5997422,3.1045073],[-76.598804,3.1019254],[-76.5918374,3.0971452],[-76.5925835,3.0943641],[-76.5995649,3.0916716],[-76.6042413,3.0970272],[-76.6074106,3.0910888],[-76.6137935,3.0924683],[-76.6159322,3.0970436],[-76.6238491,3.1048015],[-76.6246303,3.1094667],[-76.6225515,3.114361],[-76.6231171,3.1174984],[-76.6256846,3.1238478],[-76.6294845,3.1271388],[-76.6320759,3.1264481],[-76.6421224,3.1171923],[-76.6433297,3.1118648],[-76.6477102,3.1052656],[-76.6553343,3.1010685],[-76.6664961,3.0991654],[-76.6691082,3.1007145],[-76.6767916,3.1003456],[-76.6817549,3.102401],[-76.6861302,3.1094931],[-76.6951748,3.1130022],[-76.7011887,3.1193964],[-76.7251753,3.1194889],[-76.7332503,3.1250307],[-76.7435617,3.1355709],[-76.7487308,3.1499401],[-76.7481673,3.156607],[-76.7415106,3.1717094],[-76.7453995,3.1910955],[-76.7478627,3.1953958],[-76.7540662,3.2009966],[-76.7547737,3.2093322],[-76.7565116,3.2127036],[-76.7646265,3.221525],[-76.7690882,3.2312848],[-76.7734477,3.2338116],[-76.7776487,3.2306838],[-76.7831231,3.2307499],[-76.7851819,3.223199],[-76.7892134,3.224563],[-76.7964853,3.2164606],[-76.8077897,3.2095333],[-76.8119435,3.2086379],[-76.8255384,3.2112431],[-76.8394496,3.2109601],[-76.8500215,3.2078704],[-76.8594513,3.2124722],[-76.86486,3.2123135],[-76.8700734,3.2093445],[-76.8760485,3.2104075],[-76.8813713,3.2090304],[-76.8909394,3.2032854],[-76.8970759,3.2038446],[-76.9083175,3.2005148],[-76.9129937,3.1867288],[-76.9139482,3.1782392],[-76.9122004,3.1721853],[-76.9158174,3.149569],[-76.9266685,3.1417721],[-76.9277477,3.1385907],[-76.9266889,3.1274131],[-76.9307057,3.1217799],[-76.9389742,3.1143318],[-76.951524,3.1155416],[-76.9616928,3.1186416],[-76.9723281,3.1189003],[-76.9786116,3.1274822],[-76.9782421,3.1345016],[-76.9882871,3.1390385],[-76.991242,3.1485988],[-76.9961172,3.1542965],[-76.9999382,3.1530377],[-77.013076,3.1541482],[-77.0188154,3.1565446],[-77.0301927,3.1663824],[-77.0381309,3.1648128],[-77.0549852,3.1705965],[-77.0592895,3.1685729],[-77.0635278,3.1689866],[-77.0695257,3.1717716],[-77.0788714,3.1794498],[-77.0812747,3.179107],[-77.0829913,3.1809924],[-77.0869395,3.1796212],[-77.0872828,3.1815066],[-77.0848795,3.1839061],[-77.0864245,3.1856201],[-77.0893427,3.1821922],[-77.0950076,3.1833919],[-77.0967242,3.1852773],[-77.1001574,3.1852773],[-77.103451,3.1833925],[-77.1047147,3.1809415],[-77.1103942,3.179108],[-77.110276,3.1770986],[-77.1170976,3.1690837],[-77.1305906,3.1610684],[-77.1341496,3.1637279],[-77.1355658,3.1689984],[-77.1398591,3.1720684],[-77.1428458,3.1721105],[-77.1456121,3.1685744],[-77.1468869,3.1703561],[-77.153301,3.170824],[-77.1546125,3.1758765],[-77.1556378,3.1738352],[-77.1595253,3.173943],[-77.1612365,3.1715461],[-77.1581963,3.1696965],[-77.1590602,3.1649275],[-77.1636324,3.1658704],[-77.1654778,3.1623138],[-77.1668982,3.1620847],[-77.1700268,3.1655276],[-77.1721702,3.1657003],[-77.1726375,3.1593672],[-77.1806272,3.1548999],[-77.1823296,3.1506891],[-77.1866433,3.1486695],[-77.1905639,3.1497297],[-77.193097,3.1446502],[-77.1928577,3.1395174],[-77.1978788,3.140203],[-77.2004219,3.1439324],[-77.2001534,3.1367321],[-77.2014408,3.1339468],[-77.2062902,3.1329183],[-77.2090917,3.1352773],[-77.2119551,3.1341182],[-77.2172766,3.1351894],[-77.2157316,3.1305615],[-77.2187786,3.1275191],[-77.2201948,3.1234053],[-77.217516,3.1233114],[-77.2165795,3.120023],[-77.2281771,3.1113639],[-77.2302799,3.1157349],[-77.2346573,3.1151349],[-77.235301,3.112521],[-77.2320609,3.1102796],[-77.2335271,3.1074739],[-77.2449141,3.1160777],[-77.2430333,3.122865],[-77.2450202,3.1262166],[-77.2477894,3.1245195],[-77.2485619,3.1171061],[-77.2514522,3.1146541],[-77.2529514,3.1150137],[-77.2536562,3.122377],[-77.2583466,3.1279904],[-77.2605352,3.1335182],[-77.2632389,3.1346324],[-77.2675734,3.1329612],[-77.2704058,3.1403744],[-77.2732382,3.1380176],[-77.2743111,3.1327041],[-77.2765068,3.130388],[-77.2787313,3.1321899],[-77.2780798,3.1385211],[-77.2843103,3.1369892],[-77.2877436,3.1378462],[-77.2897158,3.142833],[-77.2867136,3.1475733],[-77.2778268,3.1480057],[-77.2773581,3.1515156],[-77.2794609,3.1590572],[-77.2820787,3.1591001],[-77.2853832,3.1561863],[-77.2904902,3.1566576],[-77.3013477,3.1631708],[-77.3061543,3.1687842],[-77.3164539,3.1740975],[-77.3199301,3.1735833],[-77.3210888,3.1714408],[-77.3204021,3.1647563],[-77.3214321,3.1624852],[-77.3253374,3.1611569],[-77.3304601,3.1637391],[-77.3313456,3.1541295],[-77.3333197,3.1515584],[-77.3412161,3.1482161],[-77.3450785,3.1404173],[-77.3466234,3.1396888],[-77.3548632,3.1447452],[-77.3634462,3.1446595],[-77.3668365,3.1503586],[-77.3643502,3.1642564],[-77.3710423,3.1707981],[-77.3788099,3.1736262],[-77.383316,3.1778254],[-77.3812132,3.1820246],[-77.3840027,3.1935939],[-77.3801832,3.1976645],[-77.3804836,3.2019493],[-77.3908241,3.2127859],[-77.3931938,3.2137239],[-77.4032288,3.21249],[-77.4064903,3.2181887],[-77.4068766,3.2250872],[-77.4130993,3.2298004],[-77.4160604,3.2353276],[-77.4150305,3.2416261],[-77.4285488,3.2531947],[-77.435544,3.2506667],[-77.4382048,3.2471962],[-77.4442129,3.2469819],[-77.4474745,3.2436399],[-77.4514227,3.2429972],[-77.4543409,3.2373843],[-77.4544753,3.233085],[-77.4627094,3.2376414],[-77.4684601,3.2378128],[-77.4709492,3.2360132],[-77.470048,3.2320284],[-77.4625807,3.2288149],[-77.4616795,3.2252586],[-77.4691038,3.2247015],[-77.4689457,3.222418],[-77.4667864,3.2204168],[-77.4667899,3.2160455],[-77.475914,3.2091067],[-77.4804791,3.208363],[-77.4962299,3.2211124],[-77.4983381,3.2215044],[-77.5401138,3.217747],[-77.5401657,3.2102258],[-77.5460762,3.2080245],[-77.54945,3.20403],[-77.55338,3.18392],[-77.56229,3.1638101],[-77.5771218,3.1397825],[-77.6228526,3.0817559],[-77.6237721,3.0776736],[-77.62665,3.07582],[-77.6304899,3.0756799],[-77.6540121,3.0610127],[-77.6568504,3.0529278],[-77.6535536,3.0462886],[-77.6555317,3.044423],[-77.6635564,3.0489591],[-77.666925,3.0455953],[-77.6750658,3.027935],[-77.6894891,3.0031601],[-77.6905331,2.9989898],[-77.68923,2.9955601],[-77.6927592,2.993258],[-77.70223,2.97415],[-77.7031965,2.9684501],[-77.7022681,2.9682534],[-77.6997688,2.9699064],[-77.6894957,2.9845767],[-77.6798742,2.9935389],[-77.6786926,2.9930051],[-77.6813371,2.9855881],[-77.6762732,2.9850262],[-77.6727847,2.9863467],[-77.6663422,2.9832843],[-77.6635571,2.9835372],[-77.6613107,2.9777558],[-77.6674864,2.9741114],[-77.6725393,2.9642996],[-77.6673712,2.959874],[-77.6638371,2.9586928],[-77.6570999,2.9514038],[-77.6545735,2.9413114],[-77.660321,2.9323547],[-77.6680479,2.9357045],[-77.6773115,2.9362652],[-77.6809608,2.9345831],[-77.6889836,2.9203026],[-77.6912294,2.9131256],[-77.6907802,2.9072942],[-77.6885345,2.9030328],[-77.6932505,2.9030328],[-77.6970683,2.9010143],[-77.6990894,2.8967528],[-77.6990042,2.8890313],[-77.6936919,2.88602],[-77.6842159,2.8673309],[-77.6812966,2.8656102],[-77.6766001,2.85844],[-77.6714801,2.86],[-77.66764,2.8631],[-77.6657101,2.8585999],[-77.66634,2.85396],[-77.6735099,2.85098],[-77.6787664,2.8514644],[-77.6832173,2.8535675],[-77.6865195,2.8583952],[-77.693,2.86201],[-77.70504,2.86262],[-77.70566,2.8551401],[-77.70948,2.84252],[-77.7130129,2.8355212],[-77.7157078,2.834624],[-77.7185663,2.8293676],[-77.7204424,2.82497],[-77.7197149,2.8214901],[-77.7215144,2.8193104],[-77.7253644,2.8238576],[-77.731877,2.8245305],[-77.7372668,2.823409],[-77.76048,2.8017],[-77.7636699,2.7950199],[-77.7629407,2.7910886],[-77.7593315,2.7910751],[-77.7612037,2.793162],[-77.7594951,2.7917957],[-77.7551794,2.7925646],[-77.743223,2.7889853],[-77.7392795,2.7894442],[-77.7289803,2.7821018],[-77.7345119,2.771216],[-77.7418406,2.7763664],[-77.7477103,2.7732373],[-77.7519963,2.7646237],[-77.7579052,2.7615811],[-77.7646035,2.7652981],[-77.7695651,2.7653972],[-77.7732368,2.76396],[-77.7789839,2.7576832],[-77.78164,2.7578899],[-77.7813243,2.753949],[-77.7835075,2.7535525],[-77.7862499,2.7601901],[-77.78907,2.7603101],[-77.796554,2.7520794],[-77.7998801,2.7271899],[-77.7978263,2.7257816],[-77.7930152,2.7289765],[-77.7894615,2.7270874],[-77.7939193,2.7223443],[-77.7964389,2.7159556],[-77.7976904,2.7078469],[-77.7970554,2.7013048],[-77.7949193,2.6988873],[-77.7910567,2.6976055],[-77.7915024,2.6925226],[-77.784155,2.6894495],[-77.7793521,2.6898857],[-77.7771689,2.6873481],[-77.7795505,2.6853656],[-77.7848298,2.6858811],[-77.7899105,2.6834624],[-77.7865366,2.6732723],[-77.7900055,2.6622891],[-77.7885213,2.6523368],[-77.7872114,2.6497992],[-77.7847901,2.6492837],[-77.7732101,2.6550101],[-77.7708999,2.65386],[-77.7720882,2.6517421],[-77.7757003,2.6492837],[-77.7800665,2.6484907],[-77.7953485,2.6381417],[-77.8046701,2.63884],[-77.8046701,2.6407801],[-77.8030094,2.64175],[-77.7952295,2.6419879],[-77.7926891,2.6435739],[-77.7926097,2.6470236],[-77.7977698,2.6581655],[-77.8017626,2.6738736],[-77.8029137,2.6752217],[-77.8081929,2.6758165],[-77.8095822,2.6782748],[-77.808312,2.6890992],[-77.8100585,2.6913196],[-77.8167667,2.6924298],[-77.8232367,2.6971084],[-77.8304212,2.6986944],[-77.8307388,2.7009148],[-77.8335967,2.7030955],[-77.8420657,2.7036434],[-77.8459314,2.7018747],[-77.8467803,2.6923661],[-77.8492358,2.6886413],[-77.8491752,2.6857039],[-77.8508123,2.6850983],[-77.8532375,2.6934562],[-77.8578152,2.6975443],[-77.8622511,2.6980513],[-77.876898,2.6933727],[-77.882336,2.6895663],[-77.8850352,2.6820328],[-77.8823757,2.6752923],[-77.876898,2.6734684],[-77.8785652,2.6690276],[-77.8877343,2.6742217],[-77.8904732,2.6835792],[-77.8977574,2.685628],[-77.9073871,2.6806031],[-77.9141041,2.6625979],[-77.9085337,2.6632782],[-77.9037308,2.6620887],[-77.9075414,2.659789],[-77.9093673,2.6557842],[-77.9068269,2.6495194],[-77.9056396,2.6364332],[-77.9013095,2.6223185],[-77.89847,2.61828],[-77.8937301,2.61418],[-77.8914199,2.6145699],[-77.88479,2.6263],[-77.8808201,2.62605],[-77.88132,2.61961],[-77.8862999,2.6121199],[-77.89269,2.60916],[-77.90089,2.6103],[-77.9105201,2.62263],[-77.9161999,2.6409841],[-77.92788390467042,2.64006729929727],[-77.9244726,2.6210911],[-77.9173489,2.6069567],[-77.9155154,2.5936788],[-77.9146615,2.5437799],[-77.9180912,2.5260445],[-77.9239226,2.5183361],[-77.9256423,2.5103544],[-77.9252013,2.4820098],[-77.9230791,2.468999],[-77.9174271,2.4545594],[-77.9190777,2.438499],[-77.917577,2.43121],[-77.9187946,2.4166989],[-77.9146767,2.4057776],[-77.9003774,2.3936414],[-77.8991281,2.3829101],[-77.895321,2.3752363],[-77.8940718,2.3655995],[-77.8904431,2.3593177],[-77.8832452,2.3527147],[-77.8836022,2.3484317],[-77.8803423,2.3346665],[-77.8808182,2.3289558],[-77.8833166,2.324994],[-77.8834951,2.3194617],[-77.8791526,2.3130372],[-77.8784387,2.3044414],[-77.8743936,2.3012886],[-77.8733229,2.2943882],[-77.866244,2.2835616],[-77.8656491,2.2773334],[-77.8626748,2.2706114],[-77.8607712,2.2682319],[-77.8491714,2.2627354],[-77.8479221,2.2605939],[-77.850599,2.2424505],[-77.8473273,2.2316596],[-77.8529785,2.2145691],[-77.8532164,2.2054082],[-77.8487549,2.1911909],[-77.8386423,2.178211],[-77.830671,2.1761884],[-77.8214506,2.1782705],[-77.8073166,2.173809],[-77.80113,2.1701208],[-77.7984531,2.1638747],[-77.7856041,2.1555466],[-77.7806429,2.1483785],[-77.7511376,2.1408832],[-77.7439992,2.1350535],[-77.7393592,2.1335663],[-77.7307932,2.1352915],[-77.7218583,2.1414781],[-77.7046667,2.1490923],[-77.6984801,2.1536133],[-77.6857024,2.1546841],[-77.6792778,2.1580153],[-77.6645847,2.1578963],[-77.6514382,2.1665814],[-77.6456204,2.1685444],[-77.6036251,2.1647096],[-77.5931814,2.1737034],[-77.5874668,2.1749742],[-77.5814102,2.1790347],[-77.5741637,2.1806681],[-77.5685893,2.187159],[-77.5646117,2.194711],[-77.5597882,2.1975799],[-77.5562121,2.2025198],[-77.5434465,2.1963462],[-77.5389685,2.197315],[-77.529525,2.1956949],[-77.5212275,2.2000031],[-77.5072372,2.197216],[-77.5007913,2.1932685],[-77.4879416,2.1952526],[-77.4847263,2.2019716],[-77.484763,2.210516],[-77.4877362,2.2160806],[-77.4790057,2.2295291],[-77.4786807,2.2361763],[-77.4722736,2.2413195],[-77.4731408,2.2508098],[-77.471867,2.2562746],[-77.4736048,2.2624381],[-77.4749085,2.263797],[-77.4786841,2.2638989],[-77.4800512,2.2662663],[-77.4790223,2.2736881],[-77.4765517,2.2752419],[-77.4681742,2.2749827],[-77.4594343,2.2861777],[-77.4437983,2.285417],[-77.4390074,2.28259],[-77.432279,2.2818486],[-77.424595,2.2785003],[-77.4175514,2.2731905],[-77.4089882,2.2711514],[-77.4018175,2.2637648],[-77.3856775,2.2559424],[-77.3811373,2.2565558],[-77.3747938,2.2642065],[-77.3588469,2.2623605],[-77.352016,2.256947],[-77.3481894,2.2465451],[-77.3425831,2.2417347],[-77.3402925,2.2367109],[-77.3299643,2.2297899],[-77.327263,2.2239482],[-77.3228844,2.2222952],[-77.3232398,2.2175773],[-77.3191002,2.2108691],[-77.316738,2.2004779],[-77.3106562,2.2011726],[-77.3081621,2.1962223],[-77.3087042,2.1944629],[-77.3126328,2.1927856],[-77.315075,2.1855501],[-77.3184288,2.1821297],[-77.3140676,2.1651906],[-77.3080839,2.1549175],[-77.3053872,2.1460504],[-77.307696,2.1457272],[-77.311381,2.1419949],[-77.30932,2.1373865],[-77.3119571,2.1291105],[-77.307901,2.1246006],[-77.3080808,2.1069385],[-77.3107341,2.0984781],[-77.3160631,2.0930009],[-77.3160306,2.0878344],[-77.3185196,2.0824363],[-77.3202286,2.0722683],[-77.3266669,2.065738],[-77.3332967,2.0614896],[-77.3348628,2.0593224],[-77.3352536,2.0543975],[-77.3310175,2.0498487],[-77.3076183,2.0375585],[-77.3029398,2.028184],[-77.2810343,2.0211021],[-77.2741585,2.0071196],[-77.2683909,2.0051862],[-77.2656671,2.0001022],[-77.2604406,1.9954667],[-77.2471812,1.9927236],[-77.2270375,1.9908924],[-77.2212564,1.9884492],[-77.2104069,1.971798],[-77.2073279,1.957611],[-77.2034718,1.95065],[-77.2075094,1.9408381],[-77.2180223,1.9345825],[-77.2167164,1.91936],[-77.2188192,1.9182747],[-77.2220609,1.920936],[-77.2259051,1.9210511],[-77.2285672,1.9195508],[-77.231154,1.9153676],[-77.2404979,1.9146251],[-77.2452837,1.911399],[-77.2455582,1.9067346],[-77.2425933,1.9008629],[-77.2442954,1.8966923],[-77.2430326,1.8868146],[-77.246272,1.8834672],[-77.2472054,1.8799002],[-77.2516348,1.877279],[-77.2520638,1.8730989],[-77.2556026,1.8688117],[-77.2785502,1.8614176],[-77.2800952,1.8597019],[-77.2807818,1.8543832],[-77.2792369,1.8502655],[-77.2814685,1.8488929],[-77.2837001,1.8499224],[-77.2881633,1.8492361],[-77.2886782,1.8478635],[-77.2864466,1.8464909],[-77.2866183,1.8451183],[-77.2944605,1.8306196],[-77.2946864,1.8181813],[-77.3006945,1.8152645],[-77.3053294,1.8044552],[-77.3089343,1.8037689],[-77.3084193,1.8001658],[-77.3042994,1.7994795],[-77.3030978,1.7965627],[-77.307561,1.7864396],[-77.3044711,1.7862681],[-77.2955447,1.7706544],[-77.294276,1.7655081],[-77.2991496,1.7577859],[-77.2998362,1.7541827],[-77.2977763,1.7531532],[-77.3000079,1.7438878],[-77.3042994,1.7404562],[-77.3087626,1.7253569],[-77.3118525,1.7241558],[-77.3106509,1.7226115],[-77.3161441,1.7140323],[-77.3212939,1.7003055],[-77.3245067,1.6965103],[-77.3255854,1.6915546],[-77.3311217,1.6821621],[-77.3215299,1.6785354],[-77.3144275,1.6769697],[-77.3133117,1.6781709],[-77.3078721,1.6748785],[-77.3019183,1.6737929],[-77.3013812,1.6722832],[-77.2994929,1.6733342],[-77.2978192,1.6697845],[-77.2952014,1.6695914],[-77.2967463,1.6718221],[-77.2957271,1.6741814],[-77.2930449,1.670074],[-77.2862788,1.6685134],[-77.2858888,1.6722296],[-77.2815436,1.6738168],[-77.2824277,1.6709341],[-77.2806102,1.6689051],[-77.2798806,1.6698381],[-77.2798485,1.6644437],[-77.2754603,1.6624168],[-77.2741729,1.6641327],[-77.2700414,1.6626764],[-77.2701389,1.665366],[-77.2665554,1.6675431],[-77.2642165,1.6665565],[-77.2629505,1.6702027],[-77.2567814,1.6710821],[-77.2554725,1.665988],[-77.2528797,1.667727],[-77.2517818,1.6647333],[-77.2493356,1.6645939],[-77.245999,1.6584918],[-77.24366,1.6572799],[-77.2421795,1.6597143],[-77.2383538,1.6567957],[-77.2378206,1.6593647],[-77.2359772,1.6597115],[-77.2337189,1.6578252],[-77.2323304,1.6614409],[-77.2280729,1.6602503],[-77.2263222,1.6614838],[-77.2266334,1.6631676],[-77.2225672,1.665291],[-77.2219664,1.6677897],[-77.2196979,1.6677604],[-77.2186619,1.6695378],[-77.2163811,1.6672626],[-77.2129479,1.667949],[-77.2110659,1.6717792],[-77.2085982,1.6704922],[-77.2039419,1.6719722],[-77.2005883,1.6705228],[-77.1924621,1.6765408],[-77.1864539,1.6776989],[-77.1836647,1.6745764],[-77.178444,1.6736114],[-77.1731225,1.6749841],[-77.1714058,1.6773864],[-77.1712342,1.6756705],[-77.1621361,1.6749841],[-77.1598732,1.6794629],[-77.1571307,1.6795432],[-77.1573961,1.6816839],[-77.1513093,1.6842963],[-77.1508519,1.6859839],[-77.1479554,1.6827622],[-77.1494799,1.6813815],[-77.1485652,1.6798474],[-77.1415525,1.6763189],[-77.144449,1.6665005],[-77.1389608,1.6560684],[-77.1368213,1.6548072],[-77.133494,1.6584409],[-77.1250162,1.658947],[-77.1228081,1.6606149],[-77.0917424,1.6609843],[-77.0880744,1.6646684],[-77.0730399,1.6686269],[-77.0698412,1.6727821],[-77.0688838,1.6771024],[-77.0613681,1.6875752],[-77.0570778,1.6978101],[-77.0509293,1.7007783],[-77.0437208,1.7014674],[-77.0374951,1.7071538],[-77.0229886,1.7143435],[-77.0163878,1.7152657],[-77.003914,1.7086648],[-76.9998856,1.708228],[-76.997022,1.7088104],[-76.9932847,1.7128874],[-76.9883438,1.7143435],[-76.9684441,1.7125477],[-76.9657261,1.7138582],[-76.9612608,1.7224975],[-76.9544852,1.7221092],[-76.9462827,1.7273026],[-76.9360416,1.729244],[-76.9255773,1.7185176],[-76.9249463,1.7076941],[-76.9171104,1.7023798],[-76.915539,1.6957608],[-76.9116819,1.6893323],[-76.9105391,1.6795561],[-76.901682,1.6626038],[-76.8939391,1.6634086],[-76.8892249,1.6563086],[-76.8701678,1.6403087],[-76.8615012,1.6365945],[-76.8568346,1.6382135],[-76.8538822,1.6369754],[-76.8512917,1.6306088],[-76.8441965,1.6265421],[-76.8412442,1.6202564],[-76.8350061,1.6153993],[-76.8341966,1.6073041],[-76.8399585,1.5976661],[-76.8412442,1.5847376],[-76.8574822,1.5638805],[-76.8565298,1.5432092],[-76.8532441,1.5407807],[-76.8512917,1.5342902],[-76.8567203,1.5270998],[-76.858006,1.5226712],[-76.8606726,1.5206236],[-76.8654345,1.5214332],[-76.8731107,1.5201474],[-76.8832059,1.5232427],[-76.8875392,1.5229569],[-76.8959201,1.5156094],[-76.90692,1.5098951],[-76.9125867,1.5005142],[-76.9172533,1.4993237],[-76.9302491,1.5004684],[-76.926561,1.4943413],[-76.928643,1.483021],[-76.9246574,1.4730868],[-76.9257876,1.465532],[-76.9220995,1.4515884],[-76.9236461,1.4411425],[-76.9181734,1.4295427],[-76.9235866,1.4098348],[-76.9277507,1.4015661],[-76.9317363,1.3993295],[-76.9316768,1.3860045],[-76.9300112,1.3800558],[-76.9258471,1.3743451],[-76.9269774,1.3661836],[-76.9248762,1.3562357],[-76.9201939,1.3499504],[-76.9205735,1.3456055],[-76.9142874,1.3416732],[-76.8946769,1.3610954],[-76.8871044,1.3719937],[-76.8806377,1.3726298],[-76.8764915,1.3706569],[-76.8724096,1.3712814],[-76.868471,1.3748276],[-76.8596657,1.376447],[-76.8577454,1.3806757],[-76.8540191,1.3836666],[-76.8279289,1.3917538],[-76.8165745,1.3997299],[-76.8068698,1.4013908],[-76.7994424,1.4085792],[-76.7935217,1.4097017],[-76.7893872,1.4122356],[-76.7810006,1.4105657],[-76.7709654,1.412987],[-76.76505,1.4179692],[-76.7499358,1.4209622],[-76.7406121,1.4301242],[-76.7307937,1.4305974],[-76.7245475,1.4331423],[-76.7160006,1.4395216],[-76.7017356,1.443132],[-76.6857013,1.4546334],[-76.675694,1.4667854],[-76.6672569,1.4672768],[-76.6601503,1.4594752],[-76.6533303,1.4586002],[-76.6466537,1.4551],[-76.6438976,1.4497846],[-76.6361942,1.4415793],[-76.6348013,1.4329904],[-76.6284999,1.4285],[-76.625272,1.4240441],[-76.6122807,1.4220285],[-76.6033947,1.4152247],[-76.6016744,1.4124087],[-76.6007852,1.4056188],[-76.5913847,1.3962426],[-76.5924528,1.3913401],[-76.5914688,1.3903823],[-76.5762636,1.3901394],[-76.5744016,1.3876895],[-76.5742569,1.3839909],[-76.5777738,1.3760302],[-76.5769234,1.3612417],[-76.5780379,1.3522852],[-76.583332,1.3460502],[-76.5845988,1.3423375],[-76.5836742,1.3378762],[-76.5763572,1.3278356],[-76.5744219,1.319454],[-76.583927,1.3051258],[-76.5866099,1.2987439],[-76.5836879,1.2900387],[-76.583491,1.2813593],[-76.5806578,1.2755381],[-76.5746647,1.2698758],[-76.5712569,1.2625631],[-76.5695982,1.2446797],[-76.5481919,1.224668],[-76.5441743,1.2228924],[-76.5380784,1.2099003],[-76.5383194,1.2061136],[-76.542834,1.1954246],[-76.5422655,1.1844783],[-76.5446728,1.1780099],[-76.5428351,1.1721836],[-76.5446484,1.1646466],[-76.5439723,1.1593154],[-76.5482932,1.1519085],[-76.5503169,1.1423371],[-76.5482322,1.1335478],[-76.549936,1.1236956],[-76.5547768,1.1143219],[-76.5657598,1.1040141],[-76.5659548,1.1007814],[-76.5632372,1.0954997],[-76.5672117,1.0870031],[-76.5664864,1.0848289],[-76.562101,1.0815536],[-76.5619842,1.0748958],[-76.5563957,1.0688437],[-76.5545342,1.0599724],[-76.5480468,1.0491942],[-76.5462247,1.0380926],[-76.5372454,1.0334823],[-76.5292583,1.0342196],[-76.5226229,1.029796],[-76.5161848,1.0312415],[-76.5060721,1.0299328],[-76.5017296,1.0316579],[-76.4926876,1.0280292],[-76.4918548,1.0227349],[-76.4867389,1.0163104],[-76.4848354,1.0081013],[-76.4797433,1.0020515],[-76.4671322,0.9988987],[-76.4585066,0.9913439],[-76.4538072,0.9889644],[-76.4513326,0.9843007],[-76.4452055,0.9811479],[-76.4463252,0.9782983],[-76.4452884,0.9691539],[-76.4366655,0.9681957],[-76.4262962,0.9604283],[-76.4236317,0.9602363],[-76.4194149,0.9632884],[-76.4164234,0.9632178],[-76.4133151,0.9611942],[-76.410549,0.9621254],[-76.4094658,0.9678652],[-76.4058975,0.9722369],[-76.4032541,0.9787696],[-76.3967001,0.9798273],[-76.3855323,0.9753005],[-76.3707283,0.9839319],[-76.3494322,0.9800058],[-76.3480045,0.9794109],[-76.3492167,0.9782666],[-76.3486922,0.976478],[-76.3462023,0.9748109],[-76.3418133,0.9786308],[-76.3351316,0.9806601],[-76.3349019,0.9736804],[-76.328572,0.9686336],[-76.331675,0.9615983],[-76.3298884,0.958594],[-76.3166401,0.9645437],[-76.310845,0.9655697],[-76.3006028,0.9626045],[-76.2966232,0.9629001],[-76.2836636,0.9713591],[-76.2815045,0.9787426],[-76.2770558,0.982472],[-76.2720589,0.9798546],[-76.2690482,0.9709447],[-76.259408,0.97309],[-76.2524878,0.9808064],[-76.2491566,0.9814013],[-76.2493457,0.9766323],[-76.2457254,0.9690355],[-76.2409976,0.9647807],[-76.2356651,0.9645768],[-76.2340549,0.965893],[-76.2340539,0.9700454],[-76.2387808,0.9776424],[-76.2358673,0.9819366],[-76.2333094,0.982472],[-76.2266469,0.9800926],[-76.205898,0.9795096],[-76.2027452,0.9811752],[-76.1968561,0.9897413],[-76.1914428,0.9928346],[-76.1894202,0.9958089],[-76.188409,0.9987832],[-76.1898961,1.0032447],[-76.1945361,1.0062785],[-76.1984622,1.0058621],[-76.203459,1.0009842],[-76.20566,1.0005083],[-76.2080395,1.0019955],[-76.2086344,1.0058026],[-76.2044108,1.0172478],[-76.2009011,1.0178427],[-76.1923351,1.0101095],[-76.1834716,1.0129053],[-76.1819249,1.0156417],[-76.1849587,1.0221257],[-76.1844234,1.0249811],[-76.1734778,1.0295615],[-76.1669224,1.0299779],[-76.1525862,1.0193299],[-76.1498498,1.0195083],[-76.1464591,1.0220068],[-76.1452693,1.0184376],[-76.1331103,1.0089197],[-76.1251986,1.0065997],[-76.1155261,1.009812],[-76.1116,1.0127863],[-76.1052349,1.0239103],[-76.1030339,1.0249811],[-76.0973827,1.0199842],[-76.0916125,1.018616],[-76.0798937,1.021055],[-76.0753132,1.0267062],[-76.0748968,1.0334282],[-76.0811429,1.0450459],[-76.0918504,1.0487935],[-76.0935755,1.0531361],[-76.0913151,1.0567052],[-76.0882812,1.057776],[-76.0844263,1.0570434],[-76.083927,1.0597013],[-76.0807676,1.0610607],[-76.080443,1.0643091],[-76.0877314,1.0669657],[-76.0919079,1.0709411],[-76.1002923,1.0676012],[-76.1022804,1.070692],[-76.1021214,1.0779353],[-76.1131374,1.0846017],[-76.1167,1.0840792],[-76.1241181,1.0872681],[-76.1232231,1.0998692],[-76.1280582,1.1024333],[-76.1304452,1.1009098],[-76.1382605,1.1004617],[-76.1393132,1.0976439],[-76.1432089,1.0993964],[-76.1426561,1.1021698],[-76.1440357,1.1037253],[-76.1453952,1.1032608],[-76.1460804,1.0996752],[-76.1484275,1.0998647],[-76.1475236,1.1042374],[-76.1529905,1.1047329],[-76.1515327,1.1082457],[-76.1525677,1.109951],[-76.15678,1.1107571],[-76.1648523,1.1068108],[-76.1838599,1.1056422],[-76.1929255,1.108725],[-76.2055103,1.1167268],[-76.2078321,1.1163378],[-76.2124124,1.110774],[-76.2157026,1.1101536],[-76.2299399,1.1186364],[-76.2343158,1.1232176],[-76.2487938,1.1195535],[-76.2590245,1.1238125],[-76.2767307,1.1346068],[-76.2814156,1.1393168],[-76.2847609,1.1456189],[-76.2840801,1.1521694],[-76.2871939,1.1606261],[-76.2868143,1.16828],[-76.2911355,1.1764142],[-76.2947034,1.1784966],[-76.301849,1.1759848],[-76.2972427,1.1839034],[-76.299896,1.1902565],[-76.2997402,1.1932977],[-76.2911333,1.2018081],[-76.2895956,1.2076163],[-76.29501,1.2177888],[-76.3020444,1.2263495],[-76.3057775,1.2288661],[-76.3028557,1.230747],[-76.3024986,1.2375349],[-76.3005578,1.2396402],[-76.2947642,1.2414753],[-76.2919998,1.2463216],[-76.2865301,1.2504365],[-76.2769416,1.2642249],[-76.2692595,1.2668814],[-76.2608777,1.2748725],[-76.2538082,1.277118],[-76.2530521,1.2819004],[-76.2499205,1.2860791],[-76.2499875,1.2904694],[-76.2453444,1.2934958],[-76.2454428,1.3007293],[-76.2318155,1.309249],[-76.2237375,1.3212907],[-76.2154394,1.3218134],[-76.2155488,1.3299143],[-76.2213684,1.3367983],[-76.2217933,1.3399566],[-76.2102202,1.3475096],[-76.2028396,1.3586173],[-76.2021124,1.3691719],[-76.1994881,1.3747198],[-76.2012052,1.3837092],[-76.2003939,1.4012828],[-76.1970842,1.4094082],[-76.2011014,1.4170636],[-76.2011515,1.4226133],[-76.1973884,1.4211167],[-76.1921675,1.4236133],[-76.1843635,1.4396446],[-76.1848419,1.4428736],[-76.1799529,1.4460899],[-76.1770332,1.4509669],[-76.1791274,1.4586494],[-76.1849753,1.4597416],[-76.1861665,1.4619024],[-76.1830645,1.4788809],[-76.1826776,1.4897821],[-76.1716454,1.5078185],[-76.1648611,1.5109798],[-76.1649513,1.5159238],[-76.1608429,1.5212957],[-76.1591255,1.5266153],[-76.1511233,1.5359223],[-76.1487639,1.5453503],[-76.1544176,1.5561713],[-76.1526906,1.5639703],[-76.1584864,1.5778714],[-76.1636973,1.5849069],[-76.1682587,1.587223],[-76.1717327,1.5855573],[-76.1843439,1.5737552],[-76.1870565,1.573089],[-76.191917,1.5741591],[-76.198539,1.5800877],[-76.1981866,1.5830403],[-76.2080993,1.6000914],[-76.2121429,1.6112041],[-76.21004,1.612487],[-76.2099406,1.614374],[-76.2142266,1.6219413],[-76.2115128,1.6448054],[-76.2124919,1.6556479],[-76.213593,1.6626853],[-76.217078,1.6651777],[-76.2257363,1.6675054],[-76.2531665,1.6572436],[-76.2665268,1.6582346],[-76.2685288,1.6616871],[-76.2727372,1.6641919],[-76.2783496,1.6703993],[-76.2811256,1.6831833],[-76.290873,1.686792],[-76.2989703,1.6864249],[-76.3044918,1.6845752],[-76.3262141,1.666065],[-76.3365207,1.663106],[-76.3784794,1.6620102],[-76.3836312,1.6646047],[-76.3854697,1.6697907],[-76.3854679,1.674976],[-76.3810417,1.7016417],[-76.3688847,1.7312674],[-76.3696163,1.7434902],[-76.3740309,1.7494179],[-76.3799201,1.7494201],[-76.4101109,1.7246156],[-76.4193137,1.7216558],[-76.4240981,1.723139],[-76.424827,1.744251],[-76.4205678,1.755498],[-76.4222419,1.7686953],[-76.4259185,1.7809192],[-76.4329082,1.7920332],[-76.4521751,1.8063925],[-76.4540164,1.8062909],[-76.4641364,1.8124036],[-76.4714201,1.8202848],[-76.4743603,1.8204183],[-76.4805743,1.8242468],[-76.5112979,1.833913],[-76.5359605,1.8342911],[-76.5484753,1.8365172],[-76.5584126,1.8417056],[-76.5698189,1.8587469],[-76.5753873,1.8642075],[-76.57902,1.8646758],[-76.586012,1.8720856],[-76.5878503,1.8802348],[-76.5837965,1.8902411],[-76.5868987,1.9078067],[-76.6061406,1.9236348],[-76.616055,1.9235425],[-76.6188283,1.9259363],[-76.6192201,1.9309633],[-76.6123233,1.9456698],[-76.6200265,1.9561001],[-76.6231213,1.9650842],[-76.624259,1.9738477],[-76.6196041,1.9787059],[-76.6120102,1.9928527],[-76.6022117,1.9950227],[-76.5931857,1.9998432],[-76.5862678,2.0006274],[-76.579567,2.0034815],[-76.5756047,2.012532],[-76.5726804,2.0221027],[-76.5754584,2.0299253],[-76.5864507,2.0369842],[-76.5865421,2.042605],[-76.5863787,2.0486928],[-76.5796405,2.0513123],[-76.5772278,2.0561862],[-76.5763781,2.0655798],[-76.5890354,2.0890403],[-76.5901546,2.0985207],[-76.58492,2.1102663],[-76.5723153,2.1202008],[-76.5559815,2.1373769],[-76.5517707,2.1384971],[-76.528418,2.1308816],[-76.513209,2.1345586],[-76.5078462,2.1326538],[-76.5014357,2.1241409],[-76.4967678,2.1243222],[-76.4929684,2.1271112],[-76.4888183,2.1267699],[-76.4844901,2.1231239],[-76.4716641,2.1026184],[-76.4666477,2.1010606],[-76.4621555,2.1031549],[-76.4507621,2.1150008],[-76.4320117,2.1199918],[-76.429949,2.1217197],[-76.427369,2.1274234],[-76.4270229,2.133301],[-76.4332947,2.149394],[-76.4364499,2.1540437],[-76.4371972,2.160022],[-76.4326582,2.1699957],[-76.4342694,2.1749323],[-76.4337057,2.178251],[-76.4357396,2.1816136],[-76.4346232,2.1875055],[-76.4329625,2.1895813],[-76.4114143,2.1948678],[-76.4070096,2.1975446],[-76.4031619,2.2047329],[-76.39628,2.2275225],[-76.3897297,2.2416616],[-76.3889138,2.2536859],[-76.3846566,2.2641321],[-76.3813005,2.2711687],[-76.3737673,2.2790894],[-76.367637,2.2771608],[-76.3639298,2.2777884],[-76.3605653,2.2706907],[-76.3437866,2.2721147],[-76.3332385,2.2777353],[-76.3232786,2.2811162],[-76.3082931,2.2812989],[-76.302902,2.2836747],[-76.2990643,2.2824868],[-76.2950438,2.2779181],[-76.2888303,2.2742631],[-76.2785929,2.2758318],[-76.2764203,2.274747],[-76.2747046,2.2693467],[-76.269007,2.2629075],[-76.2514683,2.2480129],[-76.2425616,2.2323513],[-76.2276082,2.221009],[-76.2241405,2.222208],[-76.2250769,2.2177875],[-76.2217018,2.210836],[-76.2197206,2.2080397],[-76.2136097,2.204834],[-76.2090912,2.1990091],[-76.194747,2.1954634],[-76.1861271,2.1971415],[-76.153349,2.1989388],[-76.1438709,2.2043768],[-76.1336145,2.2223126],[-76.1210555,2.224496],[-76.1466198,2.2934112],[-76.1260899,2.3802462],[-76.1213439,2.3819007],[-76.1153969,2.3919992],[-76.1070769,2.3977508],[-76.1033987,2.4066558],[-76.0994339,2.4078376],[-76.0973549,2.4102782],[-76.0945527,2.4101878],[-76.0908466,2.415521],[-76.0844287,2.4160634],[-76.0771069,2.4151594],[-76.0553222,2.4062105],[-76.0487235,2.4063009],[-76.0408141,2.4006503],[-76.0379119,2.4014919],[-76.0355997,2.4069739],[-76.0336427,2.4092191],[-76.0306694,2.4099465],[-76.0266301,2.4167061],[-76.0233955,2.4261714],[-76.0198733,2.4465683],[-75.9998429,2.4665174],[-75.9945455,2.4773721],[-75.9890762,2.481191],[-75.9857254,2.4931486],[-75.9779422,2.5030645],[-75.9623907,2.4986755],[-75.9581938,2.4912715],[-75.9515201,2.487126],[-75.9475677,2.4861998],[-75.9386567,2.4879927],[-75.9317186,2.4798982],[-75.9241312,2.4794181],[-75.9213311,2.4749966],[-75.9165067,2.4720808],[-75.9176815,2.4584626],[-75.9121774,2.4531555],[-75.9096771,2.4463225],[-75.8994236,2.4403923],[-75.8857679,2.4282517],[-75.8755076,2.4301924],[-75.8720321,2.4269842],[-75.8638412,2.427363],[-75.8610043,2.4287745],[-75.8556712,2.4347839],[-75.8557129,2.4373924],[-75.8584507,2.4393961],[-75.8589817,2.4419456],[-75.8547535,2.4458596],[-75.8525791,2.4547141],[-75.8484795,2.4549671],[-75.8453107,2.4586027],[-75.8400828,2.4605097],[-75.8394586,2.4681565],[-75.8307711,2.4738356],[-75.8203992,2.4836185],[-75.8140641,2.4838635],[-75.8222802,2.4950459],[-75.8212312,2.5065106],[-75.8193098,2.5119833],[-75.8203918,2.5197634],[-75.8241784,2.5240076],[-75.8269967,2.5305918],[-75.8365346,2.5388128],[-75.8341398,2.5504473],[-75.8386077,2.5579557],[-75.8380978,2.5651922],[-75.8368592,2.5683522],[-75.8297874,2.5724544],[-75.8273945,2.5754895],[-75.8229787,2.5922094],[-75.8146764,2.5958074],[-75.8105663,2.5999207],[-75.800284,2.6218],[-75.7913082,2.631618],[-75.7891754,2.6541306],[-75.7868028,2.6569916],[-75.7802121,2.6602096],[-75.7744446,2.668712],[-75.7747284,2.6713199],[-75.7717222,2.6756092],[-75.7610014,2.6800809],[-75.7573676,2.6833751],[-75.7574505,2.692953],[-75.7545269,2.7005002],[-75.7535827,2.7115014],[-75.7508587,2.7165306],[-75.7475052,2.7189885],[-75.7526545,2.7315246],[-75.7533958,2.7429193],[-75.7602604,2.7501807],[-75.7715448,2.7545293],[-75.7779043,2.7588173],[-75.794132,2.7619514],[-75.8033862,2.7673986],[-75.8105243,2.7677839],[-75.8181672,2.7776653],[-75.8310005,2.7841403],[-75.8464756,2.783827],[-75.8571767,2.7859749],[-75.9134466,2.8338754],[-75.9369236,2.8517545],[-75.9434314,2.8598207],[-75.9455722,2.8599243],[-75.9492332,2.8658515],[-75.9574952,2.8726542],[-75.9630411,2.874013],[-75.9784621,2.8877127],[-75.9972727,2.9052257],[-76.0016282,2.9140559],[-76.0079205,2.9153128],[-76.0096352,2.9182875],[-76.0197611,2.925437],[-76.0292414,2.9407773],[-76.0312001,2.9406096],[-76.0343491,2.9447706],[-76.0323432,2.9534511],[-76.0333392,2.9619255],[-76.0285426,2.9837021],[-76.020402,2.9944937],[-76.0224643,3.0034274],[-76.0243107,3.0053744],[-76.032317,3.008132],[-76.035377,3.0134319],[-76.0418957,3.0163049],[-76.0388316,3.025184],[-76.0445532,3.0338099],[-76.0460841,3.0429551],[-76.0579478,3.043694],[-76.0618421,3.0460479],[-76.0679908,3.0466673],[-76.0741485,3.0502905],[-76.0744167,3.0533137],[-76.0717428,3.0571998],[-76.0702397,3.0663312],[-76.0722723,3.0694762],[-76.0742598,3.0783487],[-76.0807166,3.0865999],[-76.0815958,3.090386],[-76.0920607,3.096901],[-76.0978258,3.0975569],[-76.1038281,3.095966],[-76.1085271,3.1041907],[-76.1079565,3.1066814],[-76.1050279,3.1087248],[-76.0930315,3.1124189],[-76.0889021,3.1151763],[-76.0843003,3.1149177],[-76.0761851,3.1191814],[-76.0734747,3.123437],[-76.0760227,3.1322081],[-76.0727681,3.1403794],[-76.0788797,3.1504049],[-76.085557,3.1536083],[-76.0849149,3.1569902],[-76.0803823,3.1619447],[-76.0797728,3.1661009],[-76.0833583,3.1726494],[-76.0904294,3.1754261],[-76.0923594,3.1780561],[-76.0923384,3.1864534],[-76.0904197,3.1912509],[-76.0914778,3.1979316],[-76.0901051,3.2009698],[-76.0849743,3.2039861],[-76.0756868,3.2011095],[-76.0701107,3.1973999],[-76.0605881,3.2028583],[-76.05336,3.21636],[-76.0565208,3.2238778]]]}},{"type":"Feature","properties":{"region":"ethiopia","district":"Jimma","iso3":"ETH","adm_level":"ADM2","shapeName":"Jimma","shapeID":"57463737B95697256598451","shapeGroup":"ETH","source":"geoBoundaries gbOpen 9469f09"},"geometry":{"type":"Polygon","coordinates":[[[37.332028031566004,7.344638444696382],[37.33196084004001,7.350901685848973],[37.35739363216599,7.3621239260594],[37.38053845483734,7.381191214816388],[37.39109007206985,7.403610778303444],[37.40802530401243,7.493360837251118],[37.439460558004825,7.547310840504713],[37.44591061828807,7.565490853192383],[37.43621059747564,7.585230887333947],[37.420647783624204,7.634971042240731],[37.40778056422534,7.658770995636654],[37.402000569202386,7.683831033734492],[37.40245061513459,7.71072105223481],[37.40083066251058,7.742211081276954],[37.40565082601842,7.828411155132523],[37.41258090791651,7.855071162047083],[37.43521110236576,7.899211164965906],[37.437521149161554,7.919671173201047],[37.429661129381984,7.931851196584242],[37.41742108442309,7.944721233154319],[37.39977997642507,7.955160421788177],[37.39062097073368,7.96311129247542],[37.388540978922585,7.97552130612656],[37.39259657165765,7.99403672022235],[37.4049310341373,7.994726255579225],[37.41025446531574,7.999447627865822],[37.417496261805624,8.002295890301921],[37.460456976227405,8.008785491606492],[37.47844728824606,8.015345154722489],[37.49160751577954,8.01819499909717],[37.49785760466551,8.015695093765185],[37.50760774565893,8.008605374262414],[37.514807844672106,8.000805697173258],[37.51923789156838,7.992996021775855],[37.52114790118773,7.984646381506908],[37.52253790851171,7.9782066602202],[37.525767945374206,7.973156867926269],[37.529227990434485,7.967177119821651],[37.53361803865796,7.960747388634482],[37.54008813046165,7.954997629320299],[37.550248282965924,7.950397798599441],[37.55832840952251,7.949477819263164],[37.573578673781476,7.953377607111016],[37.603640711780514,7.965995933910968],[37.601887130577886,7.975245945693706],[37.60239219742165,8.011800972716665],[37.59261225674428,8.075141037161988],[37.592948287386584,8.094261047480108],[37.59624233964762,8.112851054354437],[37.606572462222644,8.151521067211897],[37.6177825721656,8.17832106548157],[37.62469865048416,8.20116106987439],[37.62249265062348,8.21015107646476],[37.5743224165046,8.226031176391993],[37.51807213130145,8.2374812828564],[37.48898153603356,8.253479045040752],[37.47283193563883,8.267201375762125],[37.46489191905062,8.283531404367151],[37.46338195818419,8.307041424495448],[37.46419623660095,8.312801111301837],[37.450073404916544,8.315692851402579],[37.434493044366484,8.331971481541295],[37.38862201551338,8.389816564781924],[37.37534172413972,8.409564878234749],[37.35708138744126,8.451891230930734],[37.3246906708796,8.495287537542602],[37.30577029370503,8.5306845023893],[37.28737986749386,8.550872800345648],[37.26265933019297,8.58624978646483],[37.22584831217792,8.585569989344144],[37.21071795407233,8.600018778290817],[37.20275780205547,8.616807337057326],[37.19063752679365,8.631956049546186],[37.18151734341838,8.649654532139019],[37.17979737411317,8.668552878691271],[37.166087033975465,8.677932106582558],[37.142426397360104,8.682871768509505],[37.137266307523184,8.695290696833542],[37.14482658041351,8.711479245733626],[37.159817042407,8.72517798507508],[37.19585811917954,8.745906026663407],[37.21640874540719,8.759634736154121],[37.225849049156544,8.771213679513162],[37.226929138195565,8.78621235921631],[37.22244908263896,8.802330963056766],[37.212628893624384,8.822339246807],[37.206288781983574,8.839137799030567],[37.2103789695831,8.856686240880347],[37.201518768049525,8.867245347707474],[37.187818413312854,8.873164883138937],[37.17490799614141,8.85833623597327],[37.15340736714481,8.849447099214062],[37.1284091469606,8.842730291081724],[37.064804790999986,8.81803020757743],[37.046574228648076,8.802931609300988],[37.026113540085596,8.772584352767108],[37.01792320163585,8.743706918122342],[37.01398292820599,8.702160575124555],[37.00552261503911,8.681802394119995],[36.98891211206935,8.669703523510366],[36.9528610483173,8.65217519850183],[36.94474083628792,8.655354947523593],[36.91160991038021,8.654215176070979],[36.871478809749824,8.655962675995152],[36.845828081322075,8.651695645618808],[36.81627719446446,8.633967314358499],[36.79530654753435,8.615129045107942],[36.77715594639426,8.589851330506436],[36.760135401479175,8.57081305972791],[36.72643439475746,8.550734945103649],[36.6996236107038,8.541075893098633],[36.682773110756266,8.531036835109258],[36.66871267684346,8.520547805261758],[36.661192459245875,8.51751809672137],[36.66929263328611,8.503239319399842],[36.68165292822431,8.490640380592238],[36.69310319248411,8.476191605585358],[36.707073539718074,8.464982534965616],[36.72246390309435,8.4496338241563],[36.72424386289261,8.424496019101488],[36.73475397262365,8.376110220809435],[36.738863864564266,8.315455526991153],[36.743683900157336,8.287567957957474],[36.75078400697382,8.264779923063275],[36.76780441302882,8.246681455466367],[36.788524915111104,8.228143004984494],[36.80327523445674,8.202865169936114],[36.81697546423675,8.161668730004047],[36.82056549152522,8.143240339969005],[36.8174853282062,8.12014237330079],[36.80881502211965,8.101844013438383],[36.79960474416774,8.094624678887353],[36.78984449583492,8.100324213341905],[36.77701419570975,8.116372847375388],[36.76065370692374,8.104633939723096],[36.749453328701506,8.08501569472042],[36.74332310150226,8.069277097229724],[36.72189246346813,8.055958341203235],[36.69134162927167,8.056878372546478],[36.66800096821214,8.05253883440925],[36.65328051872098,8.040189968016573],[36.645510256059886,8.026981147016174],[36.64305014995547,8.014722232704335],[36.634829868454695,7.999663580720289],[36.612239199424195,7.987474728738356],[36.598538853089124,7.994984116339837],[36.59090874364889,8.025621455913223],[36.570328276679525,8.054988955360079],[36.5334772820597,8.061388518811253],[36.495866186535906,8.045840015846768],[36.47162549393435,8.038020781244168],[36.44154465300519,8.037080971238213],[36.41624399127619,8.047250164759127],[36.39922356887192,8.06210891887114],[36.393493491203394,8.084456979647737],[36.397973681688214,8.10457520568432],[36.40890406700847,8.127983118337037],[36.415914335452854,8.149741190952392],[36.41738444196148,8.168679528909989],[36.40685419998413,8.183828234866144],[36.39337384726402,8.189947749901894],[36.38225354078604,8.190317751149205],[36.37038324322185,8.198527077132296],[36.35520288232243,8.215475642700952],[36.343942632983186,8.234544012442539],[36.331371313207036,8.242929321754206],[36.31679190214657,8.240543586260891],[36.30674156235492,8.222915160575946],[36.294091165232636,8.211496206640048],[36.28446091475601,8.214875940930598],[36.26828049939796,8.225125098508906],[36.244549783872046,8.209906517127243],[36.21479890604154,8.19440797311623],[36.18497804808892,8.186988721021747],[36.16295744568838,8.189328595217079],[36.142056885669184,8.196768015681075],[36.12760652187763,8.207717106450144],[36.10776593480043,8.198297997354093],[36.08885732948722,8.173954188163306],[36.073274874109664,8.168200742556923],[36.02653355038236,8.162911359802774],[35.97429208059824,8.159221860275586],[35.955766133002705,8.162016348184341],[35.93436097201244,8.161171825520997],[35.914640393059024,8.151472737492606],[35.9015199508593,8.129784671905028],[35.8950596913042,8.104596890078113],[35.885629357804206,8.08309880023271],[35.874659004477266,8.069889991149674],[35.86956344414293,8.066428072270368],[35.87349079154869,8.059907226276607],[35.88881091878818,8.001659708639723],[35.89956103530738,7.972230951063782],[35.90590108196296,7.947162021947064],[35.90320098997381,7.927352876042594],[35.88764665908987,7.893686150996039],[35.87499240814538,7.876933439994272],[35.859855162860875,7.861288745675535],[35.851899955466756,7.849106366461936],[35.84938989006271,7.840116761876223],[35.86076006284433,7.830487149419161],[35.87583029684365,7.822947439184448],[35.89856064530574,7.808068035928701],[35.92333101385081,7.787858849960443],[35.94240130407442,7.775079358927366],[35.98713331160124,7.755816794935106],[35.9980121703374,7.74628047369452],[36.02133243859946,7.693182713754338],[36.04267276008459,7.67553342708679],[36.05268287764617,7.655074284766012],[36.04790275281691,7.635495140932674],[36.03326241804641,7.592627021578312],[36.036102421223454,7.573757832843354],[36.04584257032938,7.566658116041336],[36.062972832957115,7.558658422856469],[36.08772323821979,7.555068520317245],[36.12839391884942,7.556818355209947],[36.157334370210975,7.543798851171807],[36.181664737083636,7.524779619169744],[36.20137501685717,7.50482043559053],[36.225475372477526,7.485571214795669],[36.2803102644639,7.464471878783898],[36.30253657097655,7.4510625313798],[36.349447339569295,7.446602619896638],[36.37541769904498,7.41676385026572],[36.40707821147528,7.40973408790536],[36.453949006092955,7.418613596127188],[36.47093879085125,7.416586705713714],[36.48470450399874,7.41719858853195],[36.599121281884344,7.370225358886692],[36.60675140393711,7.369555369202978],[36.623581710523986,7.380414865221925],[36.63374187306088,7.379054901403975],[36.63884193877614,7.372395178964422],[36.652532106143454,7.346206275002997],[36.67335240842384,7.329236967872565],[36.69486272414832,7.314327558910539],[36.72066870722125,7.299700309397282],[36.76331374206233,7.267109446298719],[36.785018254545975,7.256497068604713],[36.79190407796501,7.253486149892817],[36.8417289115696,7.327186010054205],[36.879948149678874,7.330890137666423],[36.95625946960358,7.261692718936312],[36.96659428110714,7.243127855029963],[36.965440475408634,7.225937576715242],[37.004087595602016,7.235640255080707],[37.040308197135694,7.241219929635902],[37.06892865613736,7.236450073560593],[37.10562922342606,7.22570045055866],[37.129389616943236,7.229650223618456],[37.1549800634728,7.241869635199502],[37.18355058843535,7.266058519388023],[37.212351117673066,7.29391723472143],[37.238631591162665,7.313256332750005],[37.263072018324536,7.32662569292564],[37.288442452897506,7.335615245777662],[37.332028031566004,7.344638444696382]]]}},{"type":"Feature","properties":{"region":"ethiopia","district":"Sidama","iso3":"ETH","adm_level":"ADM2","shapeName":"Sidama","shapeID":"57463737B92297495098422","shapeGroup":"ETH","source":"geoBoundaries gbOpen 9469f09"},"geometry":{"type":"Polygon","coordinates":[[[38.2974032701451,6.41697501309182],[38.303667035149445,6.416027261012933],[38.31070454428955,6.416920065330245],[38.316901740381596,6.408779685376],[38.32751051959565,6.408254484284146],[38.34095531486706,6.411300538597569],[38.359231818480296,6.40583858517491],[38.38517606405623,6.40699395308796],[38.39263371522721,6.403107571369053],[38.39536467326477,6.393234085488833],[38.39883090106272,6.388402376823509],[38.3984632592931,6.381522451009275],[38.39192962575042,6.357308191564329],[38.394690486245146,6.351876695177804],[38.40423622519876,6.346830145040182],[38.41008277874362,6.3524360619741],[38.418621638502415,6.36432397967075],[38.42457734422207,6.366833083993248],[38.42847167549815,6.387221872937934],[38.44186387259016,6.406638069466645],[38.45411867158842,6.418043249891133],[38.476114076758186,6.431648043099049],[38.50462422853071,6.43761800668683],[38.53840938920281,6.438067954563698],[38.56737453516891,6.441727914540871],[38.58414460871295,6.438287884232547],[38.607147502994245,6.424109419952056],[38.62757478824512,6.418307795938828],[38.64584721067866,6.424452151030789],[38.662284955808175,6.420357741002923],[38.672844996482816,6.410257713628462],[38.69145507896727,6.407497680330499],[38.70799513788896,6.393727640400808],[38.7394853136021,6.410227604616922],[38.75879040804076,6.410342577778098],[38.77232545419643,6.401037541872866],[38.81296558248046,6.357197430146472],[38.83286051688804,6.344496427953668],[38.85337571549039,6.321617332937807],[38.874945783676075,6.302117274773896],[38.88641581770761,6.286057237191438],[38.898575830097386,6.259897187038288],[38.921755892186184,6.229847121912592],[38.93734592607758,6.201627059747932],[38.950885958152426,6.18166702277777],[38.96143597430441,6.160566974750313],[38.98896608379007,6.148396923872667],[39.035326286134115,6.138736834547315],[39.056456393880886,6.147206816783281],[39.08055652293896,6.154296781358763],[39.103736631079286,6.15863674980728],[39.13270136601689,6.160082173952515],[39.13125864265477,6.167291754687078],[39.11404840571434,6.177851332460165],[39.104438316316944,6.203540233804654],[39.10054829582316,6.219819525080091],[39.08680817034762,6.253298094393203],[39.0916913200625,6.272088708675836],[39.11028687629603,6.288616885335445],[39.120387546368285,6.300277796939823],[39.12658894965235,6.323174934211876],[39.127752988255644,6.337350120562776],[39.12822902976379,6.345633944327457],[39.12206902601969,6.381862367310347],[39.108368957455,6.438959893709035],[39.10080888696568,6.456849133761722],[39.09623885786861,6.473358415869847],[39.097458997290865,6.522876239341121],[39.08705890018452,6.546430234531514],[39.07062867032136,6.554554919686628],[39.053408416081616,6.558244798124123],[39.049288386288445,6.571084248180273],[39.05376050587047,6.585305791289454],[39.065365738671105,6.600073645888104],[39.06014864855358,6.610042504706061],[39.033038236029796,6.613062444871351],[38.960478598626835,6.602136194851669],[38.94251684113793,6.61159274018531],[38.94529693265927,6.631531854406379],[38.950262043788385,6.645056253944356],[38.935262874097845,6.656863422421393],[38.91868659273709,6.66046065401741],[38.90260636057441,6.666910416819419],[38.87778598317783,6.669460367178528],[38.855955646377836,6.669950403539405],[38.83858686233582,6.676166170364332],[38.834375374189115,6.692909451511123],[38.81876516061302,6.704858960827464],[38.810715027442164,6.702569085974289],[38.78013455132283,6.701459209863031],[38.75507415525691,6.698279415731512],[38.74312397909455,6.702189272128974],[38.728193772479734,6.713218830557158],[38.72177371637931,6.731348048863609],[38.70638351392624,6.743287567275965],[38.6893732514855,6.74560750770341],[38.679253108555976,6.750207327741711],[38.672833040507776,6.763516761256844],[38.65904284076852,6.770866479358422],[38.64432260850117,6.769966556256362],[38.63650249913223,6.772956444926288],[38.6372225828758,6.800945215854672],[38.640685170765046,6.813925374056445],[38.66843066212368,6.833512154951628],[38.69917583517626,6.849808117309609],[38.71491813937907,6.861811508599017],[38.70563386482542,6.88667128337595],[38.70059383563964,6.904570509665235],[38.705463980032675,6.931859301101849],[38.70203397005557,6.94631867384375],[38.69560390269381,6.958718147294122],[38.70136449149811,6.969869541248331],[38.71200152389779,6.974981144132118],[38.71521429307624,6.992636605971132],[38.711334288287226,7.014205673621721],[38.69849313739137,7.01505058399163],[38.69021477832448,7.002088951965332],[38.6782456877377,7.006576027657056],[38.67521373492867,7.01769561667461],[38.678908599386254,7.030016490643064],[38.685283841359386,7.03517020526591],[38.68170391998057,7.049574199792986],[38.66883375050373,7.061073730415975],[38.65434352804145,7.062923681664727],[38.6377832838229,7.067313534136273],[38.6470035046483,7.096756458412979],[38.631173293554816,7.112061585593913],[38.61232303500847,7.125391056570945],[38.58447260062582,7.127501034301912],[38.567192295161156,7.113531697629009],[38.54694468327768,7.092090788844146],[38.528961636185144,7.092242727724735],[38.505931267662824,7.089052932212173],[38.480850885372185,7.091612883120403],[38.46474065315655,7.10104251083931],[38.46085063948738,7.119401719960091],[38.443376272025,7.128023494352078],[38.42166939530811,7.123732577583666],[38.40145971128853,7.122681730786951],[38.378899376971546,7.130971427032124],[38.35773908574613,7.147060776469249],[38.343018902033634,7.165660002163865],[38.32272028193325,7.162950498992414],[38.31425443504515,7.148319041373994],[38.30608387169924,7.122824396870485],[38.29000791320653,7.108322645351158],[38.255254386850545,7.061114943624179],[38.23874384033728,7.021275498416498],[38.21718652439153,7.015626887527345],[38.194616163027185,7.013567031564174],[38.170895762708746,7.002097594804245],[38.14740532804117,6.978688675769546],[38.13011868229376,6.975054934873792],[38.12720818545478,6.961989169483519],[38.13023316662645,6.943249147012347],[38.129023142869244,6.930379137296932],[38.121023025776694,6.883049092654129],[38.11104293093658,6.854569084965377],[38.09417280515533,6.828649080156604],[38.07717182301655,6.791030903459626],[38.06329832294972,6.736751929786252],[38.05320929747772,6.71321106168409],[38.051986370247015,6.700676306542292],[38.0475853707401,6.692378689443066],[38.03170428313584,6.677940804375507],[38.03250216694583,6.671950238932632],[38.0286977050887,6.666782874663586],[38.022106716246306,6.663484638645209],[38.0158334069395,6.663243020637978],[38.01073888174826,6.661165482244763],[38.00585210578032,6.65546578907535],[37.99675000874735,6.653282874020745],[37.98419131969696,6.634350129757657],[37.974187437304984,6.627545430043148],[37.97016052008976,6.622683700588666],[37.96307319443848,6.610013462609057],[37.9486354569075,6.600409988571151],[37.94192799183158,6.599905087493183],[37.938189792615866,6.604796705242475],[37.93198393534784,6.607079732080572],[37.92440709032606,6.621286463038643],[37.91780339098497,6.62348769819053],[37.91232412483677,6.621045871284609],[37.90640405509221,6.609203972922154],[37.90896255910713,6.602374994125674],[37.9125330372609,6.597827050453376],[37.91342736079702,6.591928445986446],[37.91927623741157,6.575636762214789],[37.933516313260384,6.55846883484361],[37.95347906072213,6.550882985524241],[37.96958235098542,6.55021753916366],[37.984221718035265,6.558202590647555],[37.99767101240052,6.576874098207011],[38.01674420467727,6.576874070275548],[38.034331153357655,6.562754981326655],[38.05241349026443,6.536003045688934],[38.09155067607258,6.527333387222972],[38.10195421570124,6.513957417512035],[38.11533020074872,6.500829146350938],[38.140100588352674,6.507269383950527],[38.150504133492745,6.497856659540038],[38.1443114816973,6.459462726242378],[38.156042524126505,6.440528541794959],[38.171442615727784,6.451098529377343],[38.21632214625164,6.464738576942671],[38.222272881768056,6.462368468019403],[38.2464130121949,6.469498437274861],[38.26090306025187,6.453428395398162],[38.28368315108801,6.438748345891466],[38.2974032701451,6.41697501309182]]]}},{"type":"Feature","properties":{"region":"vietnam","district":"Dak Lak","iso3":"VNM","adm_level":"ADM1","shapeName":"\u0110\u1eafk L\u1eafk","shapeID":"63759600B97182540787332","shapeGroup":"VNM","source":"geoBoundaries gbOpen 9469f09"},"geometry":{"type":"Polygon","coordinates":[[[107.62265022073115,13.318439279748986],[107.59997507079294,13.299405679928213],[107.58504005835209,13.27165646057722],[107.5687473178345,13.223418133639996],[107.55449117033129,13.192355527685493],[107.52326341737285,13.13220182215639],[107.51443818217643,13.105755965965102],[107.50086089781223,13.07203337763832],[107.49203566441446,13.040290260986808],[107.49135679857744,13.011850259781738],[107.49271452755346,12.984068503858396],[107.48185270114129,12.956283640777428],[107.4859258862707,12.936435411664945],[107.49135679857744,12.923864049586257],[107.50357635486495,12.864968726725408],[107.53073092269398,12.833861117796403],[107.55177571327863,12.795467701673147],[107.5592432185997,12.794805695426533],[107.56195867565242,12.797453712318998],[107.57010504591119,12.798115711371054],[107.59182869963485,12.798115711371054],[107.62101986137753,12.803411647129849],[107.62780850266034,12.803411647129849],[107.65564193542701,12.793481675738803],[107.68551195940944,12.789509578904017],[107.70723561403241,12.780903152358633],[107.7554349724461,12.7709722960347],[107.79413023072561,12.766337763077331],[107.80906524316651,12.766999843967653],[107.8341832179812,12.772296432634334],[107.84979709535975,12.780241107441213],[107.86541097093959,12.791495635415288],[107.87695166318878,12.788185532236582],[107.88238257639483,12.772296432634334],[107.88509803344755,12.757068441755223],[107.89799645287405,12.749785166152549],[107.90817941614722,12.741839533567656],[107.92311442768874,12.72594752465858],[107.93261852692353,12.70608111305296],[107.96045195879094,12.692835975300056],[107.96384627988198,12.681577065828947],[107.9794601563612,12.672966976344924],[107.99032198277337,12.661044832153323],[108.0276595138755,12.627924843556741],[108.04870430356084,12.606063302179678],[108.05820840279563,12.58088709266525],[108.04734657638346,12.5775742501516],[108.00797245316625,12.581549657390838],[107.94755353936443,12.573598781758449],[107.93737057609127,12.566972865605294],[107.92582988474146,12.56432245112029],[107.91632578640599,12.547756742080026],[107.91632578640599,12.53847947884492],[107.92007311568182,12.528645215104632],[107.93136941716494,12.519738388915584],[107.95048623215393,12.516345230647914],[107.97264436004923,12.517193525161133],[107.9830717140884,12.51167956675863],[107.99393354139988,12.500227123183265],[107.99784379905213,12.488774173289528],[107.9995816912421,12.470957464115713],[107.99436801377288,12.4573820062746],[107.96786515585234,12.42810750705587],[107.96352042492771,12.416651370864145],[107.96265147928239,12.404770401233066],[107.9743822522392,12.398829711821804],[107.986113025196,12.397132347579827],[108.0000161636151,12.397132347579827],[108.00522984108437,12.393737585820986],[108.0147882485789,12.38312867035188],[108.02130534496575,12.37082178719578],[108.02956033444195,12.360636341793793],[108.03694637557481,12.355543470254986],[108.07735237281383,12.350450499790782],[108.09603471632914,12.34068869622638],[108.1129791658559,12.32668199367913],[108.11688942440747,12.299939848645124],[108.13339940066186,12.271496804134244],[108.126447831902,12.261732065182684],[108.11080680129288,12.260882940595309],[108.09864155506375,12.25706184532794],[108.0925589310499,12.252816118069461],[108.0899520932146,12.246447399927604],[108.09299340522153,12.230312627126068],[108.11384811329987,12.182327092421417],[108.12218338935365,12.178835224159403],[108.13209598174421,12.174682576239945],[108.15609627462345,12.17785932344907],[108.18727406394697,12.172559060152537],[108.20378404110068,12.167887265584909],[108.21985954498206,12.167887265584909],[108.24114872723203,12.170010819443803],[108.29806470072543,12.201437417003262],[108.31718151661374,12.208656515186078],[108.3384706979644,12.221820245408026],[108.36193224387802,12.22818955710244],[108.37580062529867,12.226542043180814],[108.39832370977143,12.226813799417357],[108.41194878590778,12.23143360058026],[108.42918867801512,12.249640270182397],[108.44142344003978,12.258607272707536],[108.46644908955392,12.273823306200654],[108.47729353836615,12.276812067223148],[108.50120693695067,12.267302256394089],[108.5198371431697,12.266487113589449],[108.53735509666046,12.270562800632774],[108.5584878679208,12.270834511903274],[108.57433744591646,12.269475958248904],[108.5893528361645,12.265943683853948],[108.6127101092842,12.26703054332495],[108.65219502268224,12.284963059097947],[108.68166967681418,12.319194467650618],[108.68280851170351,12.321131230521928],[108.68917737193823,12.331962184107567],[108.69279218790922,12.340654741423236],[108.69279218790922,12.357767369568478],[108.68278192864318,12.377323288439072],[108.68139161453144,12.392804019390042],[108.68723093236167,12.412085748458594],[108.69640700477953,12.424848924238518],[108.70224632260977,12.440598364522941],[108.70725145269245,12.44955882537954],[108.71225658277513,12.458790492986907],[108.72171071657635,12.465035258470436],[108.73839448231956,12.46720731546526],[108.7503511829608,12.470465365883967],[108.76925945056325,12.498971565285558],[108.78260646441686,12.502772155110904],[108.80234892156551,12.492184660593637],[108.8101346789723,12.478067326146231],[108.81319336947848,12.475080868287478],[108.83265776344507,12.467750326116686],[108.85323440834134,12.455260776263856],[108.85990791571777,12.453903180387499],[108.87047430044868,12.456618364945655],[108.87798199557272,12.467478819891653],[108.87826005875479,12.477252840746075],[108.87492330596586,12.489741330298216],[108.8765916823603,12.510101705329475],[108.8807626237961,12.518788309133186],[108.88604581706085,12.531274791398573],[108.8921631980732,12.555431701212115],[108.89383157446764,12.573344350061745],[108.8807626237961,12.588270604005231],[108.86894495564525,12.601483006435672],[108.86896233504376,12.610488758949089],[108.87200364705075,12.616000597649531],[108.88721020438749,12.621512319438068],[108.89589966533737,12.622360265014265],[108.90458912808583,12.627447885411641],[108.9102372779281,12.641862258736296],[108.91067175120043,12.654156229426519],[108.90980280465578,12.670264671877135],[108.91327858993503,12.680014025227138],[108.92631278180949,12.683828888192693],[108.9406503935009,12.686372098093898],[108.95238116735703,12.686795962963345],[108.9658498325038,12.684252758458058],[108.9793184985499,12.682981144963946],[108.99800084206527,12.684252758458058],[109.00669030301515,12.693153866757598],[109.0106005606674,12.70078314122901],[109.01364187267433,12.711802798660301],[109.01624646755536,12.714070186145689],[109.01603147477283,12.713895420337451],[109.01163243468915,12.71580260540594],[109.0077221770369,12.723431199090612],[109.00576704821077,12.742978424214982],[109.00609941965257,12.758147937577291],[109.00156352073998,12.769283746947394],[108.99452505678602,12.779198779699982],[108.99045838904345,12.789113424844743],[108.98936351661308,12.804518484140772],[108.98138659121827,12.811229304388917],[108.95198145198248,12.80848398984432],[108.92273272373626,12.808636508568043],[108.89629938161124,12.813517042977196],[108.87408911821831,12.814889677316785],[108.86454808922298,12.819922601846656],[108.85485064923813,12.826938026069115],[108.85203526401631,12.831208188806897],[108.85015834023528,12.835935785408196],[108.85219167410656,12.84889809087423],[108.84859423663477,12.857132619874562],[108.83123269233494,12.862774640837074],[108.81871986802753,12.872838472717376],[108.81293268569493,12.874515738910247],[108.79901216787732,12.868111572191367],[108.79306857725311,12.869178945152271],[108.78884549762165,12.878022713577423],[108.78665575366017,12.890677908658631],[108.77727113475515,12.90318000405398],[108.77570703205396,12.912479937399269],[108.76870767062258,12.925743177605625],[108.76210911094677,12.932889028705745],[108.74744564430108,12.94336924039817],[108.73302656932077,12.94551286532652],[108.71420845335751,12.95265814895447],[108.6900137333472,12.978855770677342],[108.67510587503614,12.992667950765338],[108.67349537631065,12.996272498277222],[108.65320900469186,13.001504813296549],[108.63471260680143,13.008481061252041],[108.59652649610098,13.025920821388866],[108.56550028121308,13.030571216588442],[108.53149077587864,13.038709198870492],[108.51657432634414,13.055565594876327],[108.51180106216935,13.073583230581676],[108.50523782426626,13.089856093384071],[108.49270800726879,13.108452334008064],[108.48137150519085,13.11949318666126],[108.46764837057589,13.128813605663424],[108.46612092693931,13.13327612529298],[108.46955767714513,13.142944637684934],[108.4699395382791,13.150381697357489],[108.46764837057589,13.162652350425674],[108.46344789900138,13.17343514531575],[108.45313764928312,13.187935394902581],[108.44397298206752,13.194255748404089],[108.43595389915316,13.205037149345003],[108.41800642675526,13.24369756788849],[108.4099873438409,13.252990023370955],[108.38478450989726,13.273060515430473],[108.37256495540845,13.308737293691195],[108.36149098342219,13.326945290692663],[108.34812584373276,13.344780367619933],[108.33017837223417,13.354440484840552],[108.31566764914277,13.364471736081782],[108.27503762718482,13.374900227763362],[108.24312992380698,13.385095270730233],[108.21685299177221,13.395594191918462],[108.19511195865005,13.400463101690832],[108.15976322789072,13.41126564299509],[108.15495204739915,13.421039242067422],[108.14984681467882,13.425420801129121],[108.1388355290365,13.429899646151796],[108.12692331875621,13.432236401388877],[108.11551162256342,13.432528493994823],[108.10149725869161,13.431749578580252],[108.0874828948198,13.427660234432324],[108.07807325137952,13.4193839660972],[108.06646134991144,13.41402858065453],[108.03901446824318,13.406244803554898],[108.03369651797999,13.403049669706547],[108.02196574412386,13.391790288091386],[108.01351958755896,13.388899280677322],[107.98818111696505,13.39483341582951],[107.97864008796972,13.395594191918462],[107.96237341610032,13.392703231269138],[107.94344776820003,13.39300754386312],[107.92483494227884,13.399398036390323],[107.91513750229393,13.406092656251133],[107.90465801095849,13.410961352884158],[107.89167595638037,13.414004237805386],[107.87681697622253,13.41461281083258],[107.82582721485414,13.411113498389284],[107.80580669542269,13.401528163394062],[107.78156309725921,13.386008239088994],[107.77217847835414,13.382356346768063],[107.75997847422724,13.380834708255236],[107.70711178907789,13.38022604979244],[107.68615280730626,13.376421903148355],[107.67927075434193,13.373835049148227],[107.65690407906004,13.356791550989328],[107.63375535332693,13.332289413026047],[107.62265022073115,13.318439279748986]]]}},{"type":"Feature","properties":{"region":"vietnam","district":"Lam Dong","iso3":"VNM","adm_level":"ADM1","shapeName":"L\u00e2m \u0110\u1ed3ng","shapeID":"63759600B25056861299541","shapeGroup":"VNM","source":"geoBoundaries gbOpen 9469f09"},"geometry":{"type":"Polygon","coordinates":[[[107.31361756559824,11.546423894846896],[107.31515555468513,11.54638424103996],[107.34653982115589,11.547574527942174],[107.3607133596339,11.541623043069023],[107.3730645865615,11.529124515284195],[107.3763042539382,11.522379045956257],[107.38460589844351,11.517220637222692],[107.39756456255458,11.518014244861547],[107.41396537190445,11.514244589016641],[107.43542816018152,11.506308305783762],[107.44474220119167,11.501943255576805],[107.45187958967136,11.49659845605396],[107.45725794200047,11.487607555844079],[107.46516728334353,11.47923646029443],[107.46453453564038,11.474275693768277],[107.44903222725554,11.454431756220629],[107.44207200701754,11.450090708919106],[107.43795915009474,11.444199180947464],[107.43479541337769,11.43303595034888],[107.4392246437024,11.428074372634228],[107.4461848639404,11.424353132690953],[107.45535969979039,11.424663237818208],[107.46643277785046,11.429934973720094],[107.47402574489229,11.431175369048105],[107.48003684492454,11.429314775156797],[107.48478244865112,11.424043026664378],[107.48762981196631,11.41567004973308],[107.49016080098022,11.398923353929717],[107.50218300014541,11.383416273742114],[107.51199058279923,11.373491298984334],[107.52148179205113,11.367598181910637],[107.52844201228908,11.361084594678346],[107.53451521727315,11.357115097319237],[107.53508585912516,11.356742121052093],[107.54014783715303,11.356742121052093],[107.54647530968788,11.36201511600484],[107.55818113455177,11.379384294649526],[107.56261036577581,11.39303076295937],[107.5692542126119,11.397372684401887],[107.58096003837511,11.397062548697704],[107.61765937997649,11.368838848833832],[107.66195169131754,11.355811581739147],[107.68378147223723,11.340922548936533],[107.69548729710112,11.340922548936533],[107.70877499077329,11.348987537744733],[107.7220626844454,11.364496492119486],[107.7337685093093,11.375352258899682],[107.74452521216887,11.380314756620749],[107.76445675177774,11.382795972656083],[107.80210521628277,11.37969444923948],[107.86696181313721,11.371010002010053],[107.9394113779328,11.355501401968183],[107.94289148805177,11.35053847077387],[107.95554643402079,11.350848656840071],[107.96820137998975,11.348056974150097],[107.98686742509165,11.34247352603245],[107.9957258866404,11.33782056866437],[108.02483226299859,11.328204217850441],[108.02831237311756,11.325722526973095],[108.03369072544666,11.314554648678154],[108.03305797774351,11.292838085209496],[108.04144820726901,11.257790289190552],[108.04529531003061,11.254612941234313],[108.04934489335221,11.245080685125572],[108.04752258090247,11.23276772165309],[108.05035728805848,11.227206856411328],[108.05865893256373,11.230980312791246],[108.0637209105916,11.245279277017062],[108.07809692962968,11.255804451214487],[108.08619609537357,11.264542037584988],[108.09490269830093,11.26732212441658],[108.10219194720065,11.267520701019578],[108.11069606956801,11.275463650027461],[108.12466713018398,11.285392026920533],[108.14086546077243,11.289561843304455],[108.14977454336054,11.295915731625769],[108.1675927067381,11.3026665851948],[108.18419599574867,11.303857896424802],[108.1949273898872,11.311005654087694],[108.26464348600814,11.368528681653402],[108.29090249905113,11.39303076295937],[108.30324107071891,11.41194864701248],[108.3013428294081,11.424353132690953],[108.29248436696002,11.437997439929973],[108.2826767843062,11.443268927618988],[108.27128733284422,11.446679839403089],[108.25768326577014,11.463113650274806],[108.2614797501904,11.493498178198422],[108.2747674429632,11.507139146254644],[108.29090249905113,11.51612942323436],[108.31684513779294,11.521399452222965],[108.34120590862585,11.521709450330945],[108.34531876644797,11.514579395822523],[108.35132986468159,11.50899922663308],[108.36366843724863,11.508689215035304],[108.38011986673854,11.516749431141363],[108.40448063757145,11.522019448438868],[108.42314668267335,11.517679441652945],[108.43643437634546,11.517059434645262],[108.47408283995117,11.521399452222965],[108.48990152173792,11.526979374098858],[108.50318921541003,11.52604939506358],[108.52343712932014,11.511789324717597],[108.54115405331697,11.50992926322499],[108.5588709773138,11.518609448567247],[108.56994405537392,11.529149314089636],[108.5775370224157,11.548987987006058],[108.57645624685836,11.552357174743861],[108.57405691229673,11.559836668027856],[108.55697273510373,11.582152633237456],[108.55665636080249,11.59578928994381],[108.56583119665248,11.6072559643913],[108.57184229578536,11.610974784258929],[108.59082471518849,11.613763867008913],[108.60347966115751,11.61717270675507],[108.63511702563028,11.629258261359723],[108.65536493864107,11.634216284953652],[108.67276548923599,11.642582749894018],[108.68890054532397,11.653117940740401],[108.69427889675376,11.673567464666803],[108.69238065634227,11.690297772124552],[108.68573680860692,11.7101249759869],[108.67782746816317,11.72592376117268],[108.67149999472906,11.747606895042225],[108.66833625801195,11.764642445892207],[108.65315032302902,11.775172986344273],[108.63258603571705,11.786632234190279],[108.62815680539234,11.799329760360195],[108.63321878431952,11.808929938665813],[108.6433427403752,11.820078111016073],[108.65188482942142,11.834012687935228],[108.65504856523916,11.847946556188674],[108.65821230195621,11.885100057221905],[108.67877658926824,11.994982759147092],[108.68890054532397,12.020048328667485],[108.70471922801005,12.039851573691237],[108.71167944824799,12.057178215302429],[108.71199582164991,12.072956861070338],[108.70725021702395,12.086569065210256],[108.69617713896383,12.099871229873429],[108.69332977564869,12.112863403623237],[108.70693384272272,12.143176017259464],[108.72211977770564,12.158949583656408],[108.72894749183337,12.160769908604436],[108.72907999794359,12.160805235773068],[108.71705779967778,12.177505522961553],[108.71642505287394,12.189566187929302],[108.7135776895588,12.201007851331326],[108.70598472161765,12.210284512020678],[108.69965724908286,12.250788788072157],[108.69839175457588,12.27706686404457],[108.69427889675376,12.285413469256241],[108.69427889675376,12.30797889021369],[108.69048241413219,12.313233573170919],[108.68510406180309,12.316942698346907],[108.68280851170351,12.321131230521928],[108.68166967681418,12.319194467650618],[108.65219502268224,12.284963059097947],[108.6127101092842,12.26703054332495],[108.5893528361645,12.265943683853948],[108.57433744591646,12.269475958248904],[108.5584878679208,12.270834511903274],[108.53735509666046,12.270562800632774],[108.5198371431697,12.266487113589449],[108.50120693695067,12.267302256394089],[108.47729353836615,12.276812067223148],[108.46644908955392,12.273823306200654],[108.44142344003978,12.258607272707536],[108.42918867801512,12.249640270182397],[108.41194878590778,12.23143360058026],[108.39832370977143,12.226813799417357],[108.37580062529867,12.226542043180814],[108.36193224387802,12.22818955710244],[108.3384706979644,12.221820245408026],[108.31718151661374,12.208656515186078],[108.29806470072543,12.201437417003262],[108.24114872723203,12.170010819443803],[108.21985954498206,12.167887265584909],[108.20378404110068,12.167887265584909],[108.18727406394697,12.172559060152537],[108.15609627462345,12.17785932344907],[108.13209598174421,12.174682576239945],[108.12218338935365,12.178835224159403],[108.11942674734655,12.174903420956184],[108.11636805594111,12.164030851242842],[108.10302104298682,12.14826483375515],[108.09301078282141,12.12869192759041],[108.08661534042568,12.12107985535107],[108.07995921244776,12.116067321150013],[108.02651902243502,12.1135185399487],[107.99784379905213,12.110120126043057],[107.98394065973372,12.10289835327643],[107.9748167246122,12.096101213400345],[107.96525831711767,12.077408185039758],[107.95526543635089,12.066361690939345],[107.95656885616785,12.053190276909788],[107.97264436004923,12.05234048592473],[107.98263724081608,12.049366196792619],[108.00783667981898,12.01239728340795],[108.03260164644888,11.97117308387078],[108.03042928008728,11.954171581353421],[108.03260164644888,11.950346095595876],[108.06909738513627,11.921440681742126],[108.08343499682769,11.902310406600009],[108.0925589310499,11.881052965921697],[108.09342787759454,11.867447333127984],[108.08604183466298,11.84916369414924],[108.07604895389619,11.833855519716508],[108.05084951489329,11.817270698284176],[108.02347771132736,11.80408717398393],[108.00957457200894,11.798983703934823],[108.00057228997923,11.79280837870374],[107.97121928803978,11.78511879929323],[107.96482384384535,11.794373487746327],[107.94925232903182,11.80498877671073],[107.94341301120159,11.807438401361196],[107.93590531607754,11.807166222443243],[107.922836365406,11.801450393221103],[107.9089332269869,11.800906021895457],[107.89669846406292,11.806077502274945],[107.89363977355674,11.815603654684992],[107.893361711274,11.833022051426553],[107.89475202538574,11.844724412101982],[107.89391783673881,11.857786920929698],[107.88140501243146,11.872753610191012],[107.83469046619211,11.875746849837299],[107.82579245695638,11.871665151725438],[107.8175374683795,11.869998440875406],[107.77278674111528,11.847462827947197],[107.75236650630927,11.851714972767809],[107.73368416279396,11.86277023885549],[107.72108444329251,11.873399880999784],[107.71587076582324,11.887855527810416],[107.71369840126027,11.903160669729175],[107.7093536703357,11.914213847591043],[107.69631947666255,11.918464950097416],[107.68241633914278,11.912938503709029],[107.67285793074899,11.897208772067245],[107.65938926470284,11.879352299369145],[107.64722401937308,11.868297705075065],[107.61681090290091,11.848738479397355],[107.60855591432403,11.838958339555802],[107.571191229092,11.806213592183553],[107.55207441320368,11.794305439644347],[107.53860574715759,11.790903015661684],[107.51992340544086,11.796006635897584],[107.50167553519788,11.796857229977206],[107.48864134332342,11.79260423259933],[107.4773450418403,11.783672725416011],[107.46952452743506,11.77389026442421],[107.45909717339589,11.766659525416799],[107.44649745299512,11.764107453596182],[107.43302878784834,11.755600379653856],[107.41564986415,11.754324297428411],[107.40652592902848,11.758152529715517],[107.39827094135092,11.767510210327998],[107.39371745889366,11.766302580899435],[107.37346954588287,11.76689725400513],[107.35848608966137,11.753417684578551],[107.34905815490998,11.748052929998778],[107.30666408667832,11.736146022121261],[107.28388518375431,11.725304217315852],[107.27724133781754,11.70114095019477],[107.27724133781754,11.687819272041793],[107.27344485429666,11.677595224140305],[107.26648463405866,11.667370799422883],[107.2617390294327,11.654667200131257],[107.26110628172955,11.641963020776814],[107.26933199557521,11.63018789685401],[107.27660859011439,11.626779216287844],[107.28483430485932,11.620271616741775],[107.28989628288718,11.609735183032342],[107.29328780888534,11.560072234645986],[107.29612251694067,11.553525886010902],[107.30746134826268,11.546582623389384],[107.31361756559824,11.546423894846896]]]}}]}